Name,Address,Lat,Long
Target,"150 W 100th Ave STE A, Anchorage, AK 99515, United States",61.12917869999999,-149.8814805
Target,"1801 E Parks Hwy, Wasilla, AK 99654, United States",61.5775034,-149.4035344
Target,"4616 US-280, Birmingham, AL 35242, United States",33.42533239999999,-86.71263669999999
Target,"1654 Gadsden Hwy, Birmingham, AL 35235, United States",33.605268,-86.63752889999999
Target,"5561 Grove Blvd, Birmingham, AL 35226, United States",33.3618597,-86.8530832
Target,"2576 Berryhill Rd, Montgomery, AL 36117, United States",32.3605168,-86.1598983
Target,"2750 Carl T Jones Dr SE #7, Huntsville, AL 35802, United States",34.673238,-86.5425408
Target,"6275 University Dr NW, Huntsville, AL 35806, United States",34.7410384,-86.68197049999999
Target,"1901 13th Ave E, Tuscaloosa, AL 35404, United States",33.1925163,-87.51824189999999
Target,"250 S Colonial Dr, Alabaster, AL 35007, United States",33.2248078,-86.8041639
Target,"2640 Enterprise Dr, Opelika, AL 36801, United States",32.6174702,-85.41097239999999
Target,"531 Brookwood Village, Homewood, AL 35209, United States",33.4667751,-86.7759311
Target,"3489 Lowery Pkwy, Fultondale, AL 35068, United States",33.6059743,-86.8055139
Target,"1235 Point Mallard Pkwy SE, Decatur, AL 35601, United States",34.5601477,-86.9715595
Target,"4889 Promenade Pkwy, Bessemer, AL 35022, United States",33.3345501,-86.98977789999999
Target,"790 Schillinger Rd S, Mobile, AL 36695, United States",30.6741008,-88.2288665
Target,"3150 Joe Treadwell Dr, Mobile, AL 36606, United States",30.6709985,-88.1206807
Target,"2754 Legends Pkwy, Prattville, AL 36066, United States",32.4570247,-86.3959268
Target,"8207 Hwy 72 W, Madison, AL 35758, United States",34.7488201,-86.7562505
Target,"4601 Montgomery Hwy #300, Dothan, AL 36303, United States",31.2658928,-85.446283
Target,"3820 Gulf Shores Pkwy, Gulf Shores, AL 36542, United States",30.3033803,-87.68041629999999
Target,"372 Cox Creek Pkwy, Florence, AL 35630, United States",34.8420961,-87.63473499999999
Target,"400 Oxford Exchange Blvd, Oxford, AL 36203, United States",33.6086959,-85.7820399
Target,"1698 US-98, Daphne, AL 36526, United States",30.6032737,-87.8964882
Target,"Bradley Park Crossing, 1591 Bradley Park Dr, Columbus, GA 31904, United States",32.53503480000001,-84.9716088
Target,"2404 S Promenade Blvd, Rogers, AR 72758, United States",36.2993587,-94.1727497
Target,"420 S University Ave, Little Rock, AR 72205, United States",34.7495035,-92.34459050000001
Target,"7377 Alcoa Rd, Bryant, AR 72022, United States",34.6039615,-92.53036949999999
Target,"3000 E Highland Dr Suite A, Jonesboro, AR 72401, United States",35.8234914,-90.6667887
Target,"3545 N Shiloh Dr, Fayetteville, AR 72703, United States",36.1162625,-94.15599279999999
Target,"4000 McCain Blvd, North Little Rock, AR 72116, United States",34.7880556,-92.2288889
Target,"12700 Chenal Pkwy, Little Rock, AR 72211, United States",34.7559297,-92.4148501
Target,"501 Elsinger Blvd, Conway, AR 72032, United States",35.086279,-92.41445
Target,"4001 Phoenix Ave, Fort Smith, AR 72903, United States",35.3414469,-94.3875127
Target,"102 Richmond Ranch Rd, Texarkana, TX 75503, United States",33.4578106,-94.0919062
Target,"601 Colonial Rd, Memphis, TN 38117, United States",35.1133233,-89.9033097
Target,"7255 Interstate Blvd, Horn Lake, MS 38637, United States",34.9657646,-90.0044662
Target,"1200 Branson Hills Pkwy, Branson, MO 65616, United States",36.6738451,-93.2256069
Target,"5959 Poplar Ave, Memphis, TN 38119, United States",35.1009096,-89.8634185
Target,"5150 Goodman Rd, Olive Branch, MS 38654, United States",34.9653439,-89.898516
Target,"7989 US-64, Memphis, TN 38133, United States",35.2036111,-89.7969444
Target,"9235 Poplar Ave, Germantown, TN 38138, United States",35.065143,-89.75544
Target,"325 New Byhalia Rd, Collierville, TN 38017, United States",35.0501924,-89.69101119999999
Target,"2735 Beene Blvd, Bossier City, LA 71111, United States",32.5588889,-93.7069444
Target,"4103 Pecanland Mall Dr, Monroe, LA 71203, United States",32.500017,-92.07058099999999
Target,"7110 Youree Dr, Shreveport, LA 71105, United States",32.439664,-93.7202959
Morrell® Targets,"1721 N Hwy 71, Alma, AR 72921, United States",35.5051568,-94.2262951
Target,"93 Stonebrook Pl, Jackson, TN 38305, United States",35.686874,-88.858125
Target,"3151 E 7th St, Joplin, MO 64801, United States",37.0849127,-94.4736075
Engage Target Media,"1418 AR-5, Benton, AR 72019, United States",34.6078858,-92.5393371
Target,"3777 S Arizona Ave, Chandler, AZ 85248, United States",33.2503016,-111.8376547
Target,"3699 AZ-95, Bullhead City, AZ 86442, United States",35.0519575,-114.5921734
Target,"4151 AZ-90, Sierra Vista, AZ 85635, United States",31.5564634,-110.2563688
Target,"1851 AZ-69, Prescott, AZ 86301, United States",34.5509665,-112.433903
Target,"5715 N 19th Ave, Phoenix, AZ 85015, United States",33.5209647,-112.0974082
Target,"4515 E Thomas Rd, Phoenix, AZ 85018, United States",33.4772789,-111.9843367
Target,"10404 N 43rd Ave, Glendale, AZ 85302, United States",33.5808333,-112.1530556
Target,"995 S Cotton Ln, Goodyear, AZ 85338, United States",33.4377778,-112.4213889
Target,"3425 W Frye Rd, Chandler, AZ 85226, United States",33.2955055,-111.8997574
Target,"13731 W Bell Rd, Surprise, AZ 85374, United States",33.6369444,-112.3541667
Target,"15444 N Frank Lloyd Wright Blvd, Scottsdale, AZ 85260, United States",33.6266854,-111.8887966
Target,"3699 E Broadway Blvd, Tucson, AZ 85716, United States",32.2230755,-110.9151494
Target,"32351 N Scottsdale Rd, Scottsdale, AZ 85266, United States",33.7794444,-111.9225
Target,"8055 W Bell Rd, Peoria, AZ 85382, United States",33.63601,-112.228722
Target,"4040 N Oracle Rd, Tucson, AZ 85705, United States",32.280498,-110.976545
Target,"1625 E Camelback Rd, Phoenix, AZ 85016, United States",33.5075,-112.0463889
Target,"1818 E Baseline Rd, Tempe, AZ 85283, United States",33.3796402,-111.9079077
Target,"1800 E Rio Salado Pkwy Ste 120, Tempe, AZ 85281, United States",33.4298511,-111.9064022
Target,"9350 W Northern Ave, Glendale, AZ 85305, United States",33.5544444,-112.2605192
Target,"1515 N Litchfield Rd, Goodyear, AZ 85395, United States",33.4632516,-112.3551411
Target,"1650 S Milton Rd, Flagstaff, AZ 86001, United States",35.1839995,-111.6599337
Target,"7409 W Virginia Ave, Phoenix, AZ 85035, United States",33.47579810000001,-112.2179103
Target,"2140 E Baseline Rd, Phoenix, AZ 85042, United States",33.3796633,-112.0343469
Target,"9000 Talking Stick Way, Scottsdale, AZ 85250, United States",33.5406203,-111.8871059
Target,"1230 S Longmore, Mesa, AZ 85202, United States",33.3922222,-111.865
Target,"1515 E Warner Rd, Gilbert, AZ 85296, United States",33.3337446,-111.7575908
Target,"5110 S Power Rd, Mesa, AZ 85212, United States",33.323377,-111.690178
Target,"2151 N Power Rd, Mesa, AZ 85215, United States",33.4543198,-111.682616
Target,"1135 S Gilbert Rd, Mesa, AZ 85204, United States",33.394395,-111.785419
Target,"2727 Agua Fria Fwy, Phoenix, AZ 85027, United States",33.6662098,-112.1190942
Target,"16825 E Shea Blvd, Fountain Hills, AZ 85268, United States",33.5734058,-111.7186275
Target,"1225 W Irvington Rd, Tucson, AZ 85714, United States",32.1604544,-110.9902103
Target,"12602 N Paradise Village Pkwy W, Phoenix, AZ 85032, United States",33.600649,-111.989886
Target,"1525 S Power Rd, Mesa, AZ 85206, United States",33.388767,-111.6834206
Target,"24890 N Lake Pleasant Pkwy, Peoria, AZ 85383, United States",33.7095897,-112.2755556
Target,"3931 S Gilbert Rd, Gilbert, AZ 85297, United States",33.2789082,-111.7859135
Target,"6500 E Grant Rd, Tucson, AZ 85715, United States",32.2488889,-110.8530556
Target,"16806 N 7th St, Phoenix, AZ 85022, United States",33.6382784,-112.0693992
Target,"21001 N Tatum Blvd Suite 20, Phoenix, AZ 85050, United States",33.6745976,-111.9748419
Target,"1450 Yuma Palms Pkwy, Yuma, AZ 85365, United States",32.7047891,-114.6053774
Target,"4734 E Ray Rd, Phoenix, AZ 85044, United States",33.321783,-111.98105
Target,"9830 W Lower Buckeye Rd, Tolleson, AZ 85353, United States",33.42322300000001,-112.2695419
Target,"21398 S Ellsworth Loop Rd, Queen Creek, AZ 85142, United States",33.2539311,-111.6421168
Target,"3901 W Ina Rd, Tucson, AZ 85741, United States",32.3356782,-111.048872
Target,"9615 E Old Spanish Trail, Tucson, AZ 85748, United States",32.2076214,-110.7867354
Target,"10555 N Oracle Rd, Oro Valley, AZ 85737, United States",32.3990239,-110.9601638
Target Meister,"331 W Main Ave, Casa Grande, AZ 85122, United States",32.876525,-111.7580722
On Target Enterprise,"2747 Ashfork Ave, Kingman, AZ 86401, United States",35.2098576,-114.0193711
CVS Pharmacy,"3777 S Arizona Ave, Chandler, AZ 85248, United States",33.2501965,-111.8382476
All On Target Arizona Mills,"5000 South Arizona Mills Circle Suite:541, Tempe, AZ 85282, United States",33.3829232,-111.965081
Target,"29676 Rancho California Rd, Temecula, CA 92591, United States",33.5064543,-117.1463769
Target,"2040 California Ave, Sand City, CA 93955, United States",36.6212167,-121.8431139
Target,"41040 California Oaks Rd, Murrieta, CA 92562, United States",33.5658095,-117.2032605
Target,"3535 S La Cienega Blvd, Los Angeles, CA 90016, United States",34.023439,-118.3737698
Target,"78935 CA-111, La Quinta, CA 92253, United States",33.7085992,-116.29044
Target,"4601 2nd St, Davis, CA 95618, United States",38.5541592,-121.6997725
Target,"20288 CA-18, Apple Valley, CA 92307, United States",34.5278919,-117.2170858
Target,"7100 Santa Monica Blvd #201, West Hollywood, CA 90046, United States",34.0898633,-118.3446892
Target,"4707 Pacific Ave, Stockton, CA 95207, United States",37.9916669,-121.3147138
Target,"3433 Sepulveda Blvd, Torrance, CA 90505, United States",33.8261421,-118.3453271
Target,"1057 Eastshore Hwy, Albany, CA 94710, United States",37.882744,-122.306555
Target,"1811 Hillsdale Ave, San Jose, CA 95124, United States",37.2647222,-121.9186111
Target,"16858 Golden Valley Pkwy, Lathrop, CA 95330, United States",37.8080556,-121.2986111
Target,"3173 E Shields Ave, Fresno, CA 93726, United States",36.7808333,-119.7708333
Target,"2615 Tuscany St, Corona, CA 92881, United States",33.826656,-117.5161964
Target,"533 Coleman Ave, San Jose, CA 95110, United States",37.3386803,-121.9045029
Target,"2161 Monterey Rd, San Jose, CA 95125, United States",37.3041667,-121.8658333
Target,"101 S Euclid St, Anaheim, CA 92802, United States",33.8311111,-117.9430556
Target,"2901 Ming Ave, Bakersfield, CA 93304, United States",35.3366035,-119.0359425
Target,"5600 Whittier Blvd, Commerce, CA 90022, United States",34.0180424,-118.1506748
Target,"4120 Palisades Center Dr, West Nyack, NY 10994, United States",41.0977435,-73.9588404
Target,"50 Spring Valley Market Pl, Spring Valley, NY 10977, United States",41.1045318,-74.0231727
Target,"29 Vervalen St, Closter, NJ 07624, United States",40.9713889,-73.9575
Target,"9 City Pl, White Plains, NY 10601, United States",41.0322361,-73.7656528
Target,"195 N Bedford Rd A, Mt Kisco, NY 10549, United States",41.2164915,-73.7222342
Target,"500 E Sandford Blvd, Mt Vernon, NY 10550, United States",40.9008292,-73.8180587
Target,"630 Main St, Hackensack, NJ 07601, United States",40.8991305,-74.039063
Target,"900 Bergen Town Center, Paramus, NJ 07652, United States",40.9163224,-74.06105409999999
Target,"40 W 225th St #50, The Bronx, NY 10463, United States",40.873408,-73.9077366
Target,"128 Bailey Farm Rd, Monroe, NY 10950, United States",41.31777779999999,-74.1533333
Target,"815 Hutchinson River Pkwy, The Bronx, NY 10465, United States",40.8241756,-73.8374877
Target,"21 Broad St, Stamford, CT 06901, United States",41.0553607,-73.5413299
Target,"700 Exterior Street, The Bronx, NY 10451, United States",40.8238204,-73.9304887
Target,"7101 Tonnelle Ave., North Bergen, NJ 07047, United States",40.80171259999999,-74.0222621
Target,"543 River Rd, Edgewater, NJ 07020, United States",40.8140972,-73.9816623
Target,"4024 College Point Blvd f600, Queens, NY 11354, United States",40.7577468,-73.8347434
Target,"94 NJ-23, Riverdale, NJ 07457, United States",40.9898002,-74.32549259999999
Target,"101 Shore Rd, Port Washington, NY 11050, United States",40.8411169,-73.7043158
Target,"632 US-46 E, Fairfield, NJ 07004, United States",40.8896403,-74.2720368
Target,"517 E 117th St Suite 201, New York, NY 10035, United States",40.795386,-73.9310222
Target,"2195 E Prosperity Ave, Tulare, CA 93274, United States",36.2242913,-119.3150082
Target,"2195 Galleria Way, Glendale, CA 91210, United States",34.142998,-118.258603
Target,"1415 Main St, Watsonville, CA 95076, United States",36.9149717,-121.7741274
Target,"3150 W Shaw Ave, Fresno, CA 93711, United States",36.8097045,-119.8479001
Target,"1640 N Main St, Salinas, CA 93906, United States",36.7146242,-121.6523741
Target,"777 E Colorado Blvd, Pasadena, CA 91101, United States",34.1467043,-118.1344161
Target,"2355 W Kettleman Ln, Lodi, CA 95242, United States",38.1172222,-121.3036111
Target,"1790 Airline Hwy, Hollister, CA 95023, United States",36.8350323,-121.3892983
Target,"2485 El Camino Real, Redwood City, CA 94063, United States",37.4753565,-122.2176571
Target,"4247 S Mooney Blvd, Visalia, CA 93277, United States",36.2924507,-119.3165948
Target,"6835 Katella Ave, Cypress, CA 90630, United States",33.8041374,-118.0132566
Target,"5740 N Blackstone Ave, Fresno, CA 93710, United States",36.8213167,-119.7883028
Target,"4200 E 4th St, Ontario, CA 91764, United States",34.0756634,-117.5619666
Target,"4300 Las Positas Rd, Livermore, CA 94551, United States",37.7012871,-121.7468357
Target,"20700 S Avalon Blvd Suite 700, Carson, CA 90746, United States",33.8431319,-118.259881
Target,"1000 Commerce Ave, Atwater, CA 95301, United States",37.3411813,-120.6114473
Target,"2220 Bridgepointe Pkwy, San Mateo, CA 94404, United States",37.5588399,-122.2832881
Target,"3280 R St, Merced, CA 95348, United States",37.3228367,-120.4849686
Target,"11051 Victory Blvd, North Hollywood, CA 91606, United States",34.188693,-118.371364
Target,"3000 Countryside Dr, Turlock, CA 95380, United States",37.5207302,-120.878412
Target,"3810 Bloomington St, Colorado Springs, CO 80922, United States",38.8886111,-104.7183333
Target,"5240 N Academy Blvd, Colorado Springs, CO 80918, United States",38.904719,-104.7808894
Target,"1630 E Cheyenne Mountain Blvd, Colorado Springs, CO 80906, United States",38.7923798,-104.8017386
Target,"9670 Prominent Point, Colorado Springs, CO 80924, United States",38.973538,-104.746643
Target,"4301 E Virginia Ave, Glendale, CO 80246, United States",39.7085235,-104.9370601
Target,"14500 W Colfax Ave B1, Lakewood, CO 80401, United States",39.73349899999999,-105.157158
Target,"7930 Northfield Blvd, Denver, CO 80238, United States",39.7839475,-104.8960723
Target,"460 S Vance St, Lakewood, CO 80226, United States",39.7077864,-105.0788718
Target,"9390 W Cross Dr, Littleton, CO 80123, United States",39.6106199,-105.101182
Target,"10001 Commons St, Lone Tree, CO 80124, United States",39.5350036,-104.884552
Target,"14200 E Ellsworth Ave, Aurora, CO 80012, United States",39.7154774,-104.8217302
Target,"1001 E 120th Ave, Thornton, CO 80233, United States",39.9165698,-104.9740455
Target,"7777 E Hampden Ave, Denver, CO 80231, United States",39.6552484,-104.9004236
Target,"7899 Wadsworth Blvd, Arvada, CO 80003, United States",39.8396239,-105.0855213
Target,"2171 Prairie Center Pkwy, Brighton, CO 80601, United States",39.9565123,-104.7803807
Target,"2800 Pearl St, Boulder, CO 80301, United States",40.021746,-105.255949
Target,"3650 River Point Pkwy, Sheridan, CO 80110, United States",39.6502584,-105.0055342
Target,"10445 Reed St, Westminster, CO 80021, United States",39.8864245,-105.079101
Target,"14451 Orchard Pkwy, Westminster, CO 80023, United States",39.9590255,-104.995381
Target,"1950 E County Line Rd, Highlands Ranch, CO 80126, United States",39.5652006,-104.9662659
Target,"1400 S Havana St, Aurora, CO 80012, United States",39.6912135,-104.8629097
Target,"2936 Council Tree Ave, Fort Collins, CO 80525, United States",40.52755070000001,-105.0227092
Target,"551 S Hover St Rd, Longmont, CO 80501, United States",40.1534505,-105.1343014
Target,"15700 E Briarwood Cir, Aurora, CO 80016, United States",39.5913889,-104.8044444
Target,"1725 Rocky Mountain Ave, Loveland, CO 80538, United States",40.4097222,-105.0041667
Target,"1600 California St Ste 14, Denver, CO 80202, United States",39.7450953,-104.9917982
Target,"5071 Kipling St, Wheat Ridge, CO 80033, United States",39.7885944,-105.11275
Target,"715 Blue River Pkwy, Silverthorne, CO 80498, United States",39.6377068,-106.078118
Target,"11150 S Twenty Mile Rd, Parker, CO 80134, United States",39.5135563,-104.772287
Target,"4400 Centerplace Dr, Greeley, CO 80634, United States",40.3943769,-104.7499457
Target,"3300 Dillon Dr, Pueblo, CO 81008, United States",38.30249999999999,-104.6058333
Target,"400 Marshall Rd, Superior, CO 80027, United States",39.9564715,-105.1741553
Target,"5010 Founders Pkwy, Castle Rock, CO 80108, United States",39.4078527,-104.8561001
Target,"16910 E Quincy Ave, Aurora, CO 80015, United States",39.6361111,-104.7905556
Target,"1985 Sheridan Boulevard, Edgewater, CO 80214, United States",39.7463389,-105.0561489
Target,"110 W Meadows Dr, Glenwood Springs, CO 81601, United States",39.55599,-107.3428598
Target,"3530 Wolverine Dr, Montrose, CO 81401, United States",38.4439454,-107.8687445
Target,"1265 Sergeant Jon Stiles Dr, Highlands Ranch, CO 80129, United States",39.5496223,-105.0055123
Target,"2424 Old US Highway 6 & 50, Grand Junction, CO 81505, United States",39.0916904,-108.6029569
Target,"Saddle Rock, 7400 S Gartrell Rd, Aurora, CO 80016, United States",39.581074,-104.721663
Target,"6767 S Clinton St, Greenwood Village, CO 80112, United States",39.5932413,-104.8816531
Target,"105 W E Troutman Pkwy, Fort Collins, CO 80525, United States",40.5272622,-105.0789108
Target,"400 Marshall Rd, Superior, CO 80027, United States",39.9566678,-105.1743715
Super Target,"Colorado Springs, CO 80924, United States",38.9731012,-104.7463202
Target,"1191 Boston Post Rd, Milford, CT 06460, United States",41.23458129999999,-73.0377402
Target,"5065 Main St Ste Target, Trumbull, CT 06611, United States",41.2293413,-73.2267736
Target,"7 Stony Hill Rd, Bethel, CT 06801, United States",41.415,-73.40194439999999
Target,"120 Hawley Ln, Trumbull, CT 06611, United States",41.2340674,-73.1518364
Target,"20 W Main St, Ansonia, CT 06401, United States",41.3408333,-73.0797222
Target,"25 Boston Post Rd, Orange, CT 06477, United States",41.2806269,-72.9874895
Target,"300 Chase Ave, Waterbury, CT 06704, United States",41.5829804,-73.0337038
Target,"200 Universal Dr N, North Haven, CT 06473, United States",41.3504897,-72.8717065
Target,"2177 Killingly Commons Drive, Dayville, CT 06241, United States",41.8393498,-71.8845948
Target,"600 Executive Blvd S, Southington, CT 06489, United States",41.6110384,-72.90189869999999
Target,"474 Chamberlain Hwy, Meriden, CT 06451, United States",41.5525222,-72.81558609999999
Target,"475 Hartford Rd, New Britain, CT 06053, United States",41.7109894,-72.7632404
Target,"1922 E Main St, Torrington, CT 06790, United States",41.8187334,-73.0755296
Target,"125 Buckland Hills Dr, Manchester, CT 06042, United States",41.8102778,-72.5491667
Target,"1075 Kennedy Rd, Windsor, CT 06095, United States",41.8911464,-72.6519088
Target,"900 Hartford Turnpike, Waterford, CT 06385, United States",41.3766281,-72.150117
Target,"90 Elm St, Enfield, CT 06082, United States",41.9962384,-72.5822827
Target,"333 N Main St Suite 10, West Hartford, CT 06117, United States",41.7837411,-72.7480746
Target,"195 River Rd, Lisbon, CT 06351, United States",41.585908,-71.9971819
Target Grocery,"3265 Berlin Turnpike, Newington, CT 06111, United States",41.6610477,-72.7251603
Target,"255 Greenwich St, New York, NY 10007, United States",40.71466179999999,-74.0111465
Target,"1201 3rd Ave, New York, NY 10021, United States",40.7682207,-73.96142809999999
Target,"2905 District Ave Suite 400, Fairfax, VA 22031, United States",38.8724667,-77.22940129999999
Target,"3101 Donnell Dr, District Heights, MD 20747, United States",38.8488715,-76.8869588
Target District Office,"75 Taunton Depot Dr, Taunton, MA 02780, United States",41.8782349,-71.0695102
Target Mobile,"255 Greenwich St, New York, NY 10007, United States",40.7143284,-74.01091439999999
Target,"139 Flatbush Ave, Brooklyn, NY 11217, United States",40.6846705,-73.97649369999999
Target Media Network Stage,"1515 Broadway, New York, NY 10010, United States",40.7578767,-73.9862334
Target,"512 2nd Ave, New York, NY 10016, United States",40.7414438,-73.9780457
Target Research LLC,"233 Broadway, New York, NY 10279, United States",40.7124491,-74.0082925
Target,"3100 14th St NW Unit 201, Washington, DC 20010, United States",38.92960000000001,-77.03294
High Value Target Site Protection,"111 John St #1010, New York, NY 10038, United States",40.7078278,-74.0056597
Target,"2300 Park Ave, Tustin, CA 92782, United States",33.7002505,-117.8273109
Target,"6111 Dobbin Rd, Columbia, MD 21045, United States",39.197528,-76.81317899999999
Target,"445 Albee Square W, Brooklyn, NY 11201, United States",40.6908194,-73.98319719999999
Target,"45130 Columbia Pl, Sterling, VA 20166, United States",39.0091667,-77.4394444
Target,"1050 Brandywine Pkwy, Wilmington, DE 19803, United States",39.8310596,-75.54036239999999
Target,"800 Christiana Mall, Newark, DE 19702, United States",39.6780851,-75.6501298
Target,"148 John Hunn Brown Rd, Dover, DE 19901, United States",39.1594337,-75.51116669999999
Target,"600 Hatton Dr, Glen Mills, PA 19342, United States",39.8805585,-75.5264261
Target,"125 E N Pointe Dr, Salisbury, MD 21804, United States",38.41551520000001,-75.559722
Target,"1200 Baltimore Pike, Springfield, PA 19064, United States",39.9152778,-75.35055559999999
Target,"403 Constant Friendship Blvd, Abingdon, MD 21009, United States",39.4601877,-76.31685379999999
Target,"857 Baltimore Pike, Springfield, PA 19064, United States",39.9151494,-75.3348187
Target,"1 Mifflin St, Philadelphia, PA 19148, United States",39.92454120000001,-75.14591879999999
Target,"201 Sunrise Blvd, Exton, PA 19341, United States",40.039021,-75.62868499999999
Target,"180 Eagleview Blvd, Exton, PA 19341, United States",40.0522139,-75.6658562
Target Master,"255 Wilmington West Chester Pike, Chadds Ford, PA 19317, United States",39.8526406,-75.5379739
Target,"455 Carnegie Blvd, Malvern, PA 19355, United States",40.0493089,-75.5200725
Target,"4000 Monument Rd, Philadelphia, PA 19131, United States",40.0066791,-75.21175989999999
Target Shooting Solutions,"1056 Gap Newport Pike, Avondale, PA 19311, United States",39.8373824,-75.7974663
Target,"1900 Chestnut St, Philadelphia, PA 19103, United States",39.9516748,-75.172254
Target,"2001 Pennsylvania Ave, Philadelphia, PA 19130, United States",39.9615745,-75.1724753
Target,"1128 Chestnut St, Philadelphia, PA 19107, United States",39.9501743,-75.15987559999999
Target,"28539 Marlboro Ave, Easton, MD 21601, United States",38.7817404,-76.0869826
Target,"456 N 5th St, Philadelphia, PA 19123, United States",39.9597331,-75.1481383
Target,"675 Woodbury Glassboro Rd, Sewell, NJ 08080, United States",39.76492349999999,-75.1318711
Target,"1020 Broad St, Philadelphia, PA 19146, United States",39.9382859,-75.1673355
Target,"704 W Lancaster Ave, Wayne, PA 19087, United States",40.0456379,-75.4086298
Target,"2100 N 2nd St, Millville, NJ 08332, United States",39.4205556,-75.0408333
Target,"2450 Shoppers Ln, Wyncote, PA 19095, United States",40.0759148,-75.1545837
Target,"160 W E Dekalb Pike, King of Prussia, PA 19406, United States",40.0952156,-75.3661426
Target,"1900 Deptford Center Rd, Deptford Township, NJ 08096, United States",39.829408,-75.0916366
Target,"7162 Ridge Ave, Philadelphia, PA 19128, United States",40.044359,-75.2328297
Target,"2701 Castor Ave, Philadelphia, PA 19134, United States",39.9911111,-75.0888889
Target,"2137 NJ-38, Cherry Hill, NJ 08002, United States",39.93467709999999,-75.0247498
Target,"7400 Bustleton Ave, Philadelphia, PA 19152, United States",40.05118969999999,-75.0594911
Target,"4001 E Black Horse Pike, Turnersville, NJ 08012, United States",39.7329057,-75.03990979999999
Target,"487 Berlin - Cross Keys Rd, Sicklerville, NJ 08081, United States",39.7473228,-74.99425389999999
Target,"200 Mill Rd, Phoenixville, PA 19460, United States",40.1306462,-75.4532448
Target,"650 W Cuthbert Blvd, Haddon Township, NJ 08108, United States",39.9005149,-75.06230099999999
Target,"1025 Middleton Rd, Aberdeen, MD 21001, United States",39.5206506,-76.1785098
Target,"1495 Old York Rd, Abington, PA 19001, United States",40.1248982,-75.1160656
Target,"125 Witchwood Dr, North Wales, PA 19454, United States",40.2244444,-75.2402778
Target,"4004 US-130, Delran, NJ 08075, United States",40.01188,-74.95873200000001
Target,"11000 Roosevelt Blvd #3, Philadelphia, PA 19116, United States",40.1022555,-75.01101609999999
Target,"100 Upland Square Dr, Pottstown, PA 19464, United States",40.269295,-75.656909
Target,"1139 White Horse Rd, Voorhees Township, NJ 08043, United States",39.8503966,-74.9838515
Target Photo Center,"600 Hatton Dr, Glen Mills, PA 19342, United States",39.8807904,-75.5279539
Target,"751 Route 73 S, Marlton, NJ 08053, United States",39.9049744,-74.9379223
Target,"1824 E Ridge Pike, Royersford, PA 19468, United States",40.2108333,-75.4983333
Target,"4 Centerton Rd, Mt Laurel Township, NJ 08054, United States",39.96777780000001,-74.9147222
Target,"2385 Covered Bridge Dr, Lancaster, PA 17602, United States",40.0263731,-76.20389159999999
Target,"401 Easton Rd, Warrington, PA 18976, United States",40.2235847,-75.1364703
Target,"800 Rockhill Dr, Bensalem, PA 19020, United States",40.1354763,-74.9624516
Target,"2703 County Rd 541, Burlington, NJ 08016, United States",40.03607119999999,-74.82212179999999
Target,"580 Marketplace Dr, Bel Air, MD 21014, United States",39.5256723,-76.3507532
Target,"380 Consumer Square, Mays Landing, NJ 08330, United States",39.4513134,-74.6338215
Target,"2331 Lincoln Hwy, Langhorne, PA 19047, United States",40.1763889,-74.8783333
Target,"1589 Fruitville Pike, Lancaster, PA 17601, United States",40.06823199999999,-76.3109918
Target,"4599 Perkiomen Ave, Reading, PA 19606, United States",40.3089702,-75.8595466
Target,"2769 Papermill Rd, Wyomissing, PA 19610, United States",40.3594844,-75.9833725
Target,"4220 N 5th Street Hwy, Temple, PA 19560, United States",40.3978453,-75.9294726
Target,"5230 Campbell Blvd, Nottingham, MD 21236, United States",39.3713212,-76.4514394
Target,"1330 Martin Blvd, Middle River, MD 21220, United States",39.335,-76.4483333
Target,"960 Lititz Pike, Lititz, PA 17543, United States",40.1322222,-76.30749999999999
Target,"880 Sand Lake Rd, Orlando, FL 32809, United States",28.449363,-81.3907888
Target,"5100 E, FL-100, Palm Coast, FL 32164, United States",29.477462,-81.218688
Target,"21637 FL-7, Boca Raton, FL 33428, United States",26.355095,-80.2051152
Target,"4750 Millenia Plaza Way, Orlando, FL 32839, United States",28.4933085,-81.4306855
Target,"886 FL-436, Altamonte Springs, FL 32714, United States",28.6628691,-81.41749449999999
Target,"5350 Fruitville Rd, Sarasota, FL 34232, United States",27.3361769,-82.46253
Target,"2660 FL-50, Clermont, FL 34711, United States",28.5497575,-81.7053644
Target,"4400 FL-7, Coral Springs, FL 33073, United States",26.2842162,-80.20476649999999
Target,"2430 Santa Barbara Blvd, Cape Coral, FL 33914, United States",26.6069444,-81.9772222
Target,"3970 SW Archer Rd, Gainesville, FL 32608, United States",29.6213646,-82.3837412
Target,"463737 State Rd 200, Yulee, FL 32097, United States",30.63,-81.55361110000001
Target,"650 N Congress Ave, Boynton Beach, FL 33426, United States",26.5337958,-80.0883709
Target,"5900 S State Rd 7, Lake Worth, FL 33449, United States",26.5921385,-80.2047212
Target,"3200 Rolling Oaks Blvd, Kissimmee, FL 34747, United States",28.3436485,-81.61375389999999
Target,"718 Maguire Blvd, Orlando, FL 32803, United States",28.555683,-81.3455814
Target,"2340 FL-77, Panama City, FL 32405, United States",30.191712,-85.64878499999999
Target,"120 W Grant St, Orlando, FL 32806, United States",28.5158333,-81.38
Target,"2155 Town Center Blvd, Orlando, FL 32837, United States",28.3694952,-81.4073939
Target,"13658 University Plaza St, Tampa, FL 33613, United States",28.0723803,-82.42789479999999
Target,"4401 Commercial Way, Spring Hill, FL 34606, United States",28.4954196,-82.598672
Target,"1544 N Dale Mabry Hwy, Tampa, FL 33607, United States",27.9567998,-82.50846469999999
Target,"21265 Biscayne Blvd, Aventura, FL 33180, United States",25.9717378,-80.1403845
Target,"3570 Harden Blvd, Lakeland, FL 33803, United States",28.0001395,-81.9728906
Target,"3200 N Federal Hwy, Fort Lauderdale, FL 33306, United States",26.1683333,-80.1152778
Target,"3401 N Miami Ave #100, Miami, FL 33127, United States",25.8096408,-80.1943352
Target,"1040 Dale Mabry Hwy, Lutz, FL 33548, United States",28.1730068,-82.4697295
Target,"6150 14th St W, Bradenton, FL 34207, United States",27.432249,-82.5784838
Target,"2000 SW College Rd, Ocala, FL 34471, United States",29.17430839999999,-82.156716
Target,"4450 Park St N, St. Petersburg, FL 33709, United States",27.8120761,-82.7563328
Target,"8201 SW 3rd St, Plantation, FL 33324, United States",26.1177146,-80.258636
Target,"8401 S Tamiami Trail, Sarasota, FL 34238, United States",27.2284317,-82.4925253
Target,"5900 Lake Worth Rd, Greenacres, FL 33463, United States",26.6179012,-80.13710119999999
Target,"16901 Miramar Pkwy, Miramar, FL 33027, United States",25.9807215,-80.3719576
Target,"2324 Pine Ridge Rd, Naples, FL 34109, United States",26.2090335,-81.7712607
Target,"3770 N Goldenrod Rd, Winter Park, FL 32792, United States",28.5950718,-81.2881546
Target,"2747 Gulf to Bay Blvd, Clearwater, FL 33759, United States",27.958021,-82.72431399999999
Target,"10150 Bloomingdale Ave, Riverview, FL 33578, United States",27.8953565,-82.3335419
Target,"250 Crockett Blvd, Merritt Island, FL 32953, United States",28.3862307,-80.7052075
Target,"4410 S US Hwy 17 92, Casselberry, FL 32707, United States",28.6715157,-81.3409728
Target,"1890 NE Pine Island Rd, Cape Coral, FL 33909, United States",26.6690114,-81.9327467
Target,"1201 Co Rd 581, Wesley Chapel, FL 33544, United States",28.1735055,-82.3561024
Target,"1400A Tamiami Trail, Port Charlotte, FL 33948, United States",27.0130556,-82.1419444
Target,"187 Brandon Town Center Dr, Brandon, FL 33511, United States",27.9360437,-82.3233432
Target,"12801 W Sunrise Blvd, Sunrise, FL 33323, United States",26.1492611,-80.3233561
Target,"1201 WP Ball Blvd, Sanford, FL 32771, United States",28.7984272,-81.3364057
Target,"5800 S University Dr, Davie, FL 33328, United States",26.048478,-80.2498875
Target,"8455 N Wickham Rd, Melbourne, FL 32940, United States",28.2281155,-80.72004009999999
Target,"14075 Biscayne Blvd, North Miami Beach, FL 33181, United States",25.9071939,-80.156944
Target,"5000 Grandview Pkwy, Davenport, FL 33837, United States",28.2333358,-81.6448259
Target,"7795 SW 40th St, Miami, FL 33155, United States",25.7356529,-80.32126869999999
Target,"3625 W Gandy Blvd, Tampa, FL 33611, United States",27.895026,-82.50503499999999
Target,"3251 Hollywood Blvd Ste 300, Hollywood, FL 33021, United States",26.0130084,-80.1743663
Target,"5800 20th St, Vero Beach, FL 32966, United States",27.6407994,-80.4477424
Target,"1200 S Federal Hwy, Deerfield Beach, FL 33441, United States",26.3013708,-80.0928448
Target,"444 Monument Rd, Jacksonville, FL 32225, United States",30.32912,-81.548327
Target,"101 N Cattlemen Rd, Sarasota, FL 34243, United States",27.3867504,-82.45847239999999
Target,"2415 Tarpon Bay Blvd, Naples, FL 34119, United States",26.2701861,-81.74014319999999
Target,"1750 W 37th St, Hialeah, FL 33012, United States",25.8533203,-80.31752039999999
Target,"20500 SW 112th Ave, Miami, FL 33189, United States",25.5759763,-80.3751374
Target,"1200 Linton Blvd, Delray Beach, FL 33444, United States",26.4375185,-80.0847367
Target,"2195 GA-20, Conyers, GA 30013, United States",33.6329007,-84.0166852
Target,"13055 GA-9 N, Milton, GA 30004, United States",34.0991574,-84.2689003
Target,"100 Perimeter Center Pl, Atlanta, GA 30346, United States",33.9310722,-84.34156039999999
Target,"375 18th St NW, Atlanta, GA 30363, United States",33.7928048,-84.3996145
Target,"3660 Marketplace Blvd, East Point, GA 30344, United States",33.6588,-84.499535
Target,"1850 Jonesboro Rd, McDonough, GA 30253, United States",33.46750000000001,-84.2172222
Target,"5950 State Bridge Rd, Duluth, GA 30097, United States",34.0144444,-84.1886111
Target,"3065 Atlanta Hwy, Athens, GA 30606, United States",33.9413889,-83.4405556
Target,"1275 Caroline St NE, Atlanta, GA 30307, United States",33.7572642,-84.3465434
Target,"1209 N Peachtree Pkwy, Peachtree City, GA 30269, United States",33.4367336,-84.5900217
Target,"3205 Woodward Crossing Blvd b, Buford, GA 30519, United States",34.0702432,-83.98179499999999
Target,"14065 Abercorn St, Savannah, GA 31419, United States",31.9834264,-81.1712615
Target,"514 Shallowford Rd, Gainesville, GA 30504, United States",34.2900203,-83.8468147
Target,"3200 Holcomb Bridge Rd #300, Peachtree Corners, GA 30092, United States",33.9514606,-84.23205349999999
Target,"2201 Cobb Pkwy SE, Smyrna, GA 30080, United States",33.897877,-84.4792563
Target,"2539 Piedmont Rd NE, Atlanta, GA 30324, United States",33.8236217,-84.3637423
Target,"1525 Market Pl Blvd, Cumming, GA 30041, United States",34.1862524,-84.13480360000001
Target,"4241 Lavista Rd, Tucker, GA 30084, United States",33.8449667,-84.2460722
Target,"916 Loganville Hwy #400, Bethlehem, GA 30620, United States",33.9430809,-83.7523422
Target,"555 Bullsboro Dr, Newnan, GA 30265, United States",33.393192,-84.758237
Target,"740 Ernest W Barrett Pkwy NW, Kennesaw, GA 30144, United States",34.0093719,-84.57371940000002
Target,"2022 Cumming Hwy, Canton, GA 30115, United States",34.2341667,-84.45722219999999
Target,"2535 Dallas Hwy, Marietta, GA 30064, United States",33.944675,-84.626685
Target,"1907 E Victory Dr, Savannah, GA 31404, United States",32.040822,-81.06857200000002
Target,"100 Cherokee Pl, Cartersville, GA 30121, United States",34.1730582,-84.78574909999999
Target,"200 Glynn Isle, Brunswick, GA 31525, United States",31.201246,-81.4797699
Target,"1905 Scenic Hwy N, Snellville, GA 30078, United States",33.8747194,-84.0166167
Target,"5865 Spout Springs Rd, Flowery Branch, GA 30542, United States",34.18036,-83.910605
Target,"875 Lawrenceville-Suwanee Rd Ste 4000, Lawrenceville, GA 30043, United States",33.9705076,-84.0142637
Target,"3535 Peachtree Rd NE, Atlanta, GA 30326, United States",33.8516403,-84.3596269
Target,"107 Pavilion Pkwy, Fayetteville, GA 30214, United States",33.48190690000001,-84.4385452
Target,"235 Robert C Daniel Jr Pkwy, Augusta, GA 30909, United States",33.4908333,-82.0816667
Target,"2400 N Druid Hills Rd NE, Atlanta, GA 30329, United States",33.8282207,-84.3251334
Target,"2950 Chapel Hill Rd, Douglasville, GA 30135, United States",33.7259333,-84.73476939999999
Target,"1815 Norman Dr, Valdosta, GA 31601, United States",30.8431366,-83.3160348
Target,"6000 North Point Pkwy, Alpharetta, GA 30022, United States",34.04600569999999,-84.2863315
Target,"2721 Dawson Rd, Albany, GA 31707, United States",31.62173319999999,-84.2250387
Target,"1129 S Park St, Carrollton, GA 30117, United States",33.5589164,-85.0765253
Target,"2625 Peachtree Pkwy, Suwanee, GA 30024, United States",34.0969486,-84.1724885
Target,"4125 Austell Rd, Austell, GA 30106, United States",33.8515491,-84.60241479999999
Target,"140 Woodstock Square Ave, Woodstock, GA 30189, United States",34.0852984,-84.5462448
Target,"1401 Johnson Ferry Rd, Marietta, GA 30062, United States",33.9855998,-84.42905739999999
Target,"5570 Roswell Rd, Sandy Springs, GA 30342, United States",33.9055154,-84.3804305
Target,"3378 Cobb Pkwy NW, Acworth, GA 30101, United States",34.04,-84.6847222
Target,"1135 Woodstock Rd, Roswell, GA 30075, United States",34.06388889999999,-84.3975
Target,"5220 Jimmy Lee Smith Pkwy, Hiram, GA 30141, United States",33.8858175,-84.7442707
Target,"2929 Watson Blvd, Warner Robins, GA 31093, United States",32.616253,-83.6857933
Target,"3040 Shallowford Rd, Marietta, GA 30062, United States",34.03486669999999,-84.46031390000002
Target,"400 Bald Hill Rd #200, Warwick, RI 02886, United States",41.7226427,-71.4760278
Target,"423 Donald Lynch Blvd, Marlborough, MA 01752, United States",42.3596115,-71.6072159
Target,"340 Towne Dr, Fayetteville, NY 13066, United States",43.0315069,-76.02040029999999
Target,"7951 Nolpark Ct, Glen Burnie, MD 21061, United States",39.132795,-76.633995
Target,"45155 First Colony Way, California, MD 20619, United States",38.2971215,-76.5137314
Target,"3101 Richmond Hwy, Alexandria, VA 22305, United States",38.8343518,-77.0494423
Target,"3300 Western Pkwy, Waldorf, MD 20603, United States",38.6208216,-76.9223519
Target,"4630 Monticello Ave, Williamsburg, VA 23188, United States",37.27138890000001,-76.7611111
Target,"60 Longview Dr, Bangor, ME 04401, United States",44.8420612,-68.7422794
Target,"2701 Lawndale Dr, Greensboro, NC 27408, United States",36.1047222,-79.8216667
Target,"2887 S Rochester Rd, Rochester Hills, MI 48307, United States",42.637785,-83.12899399999999
Target,"2000 W Waters Rd, Ann Arbor, MI 48103, United States",42.2438321,-83.7698875
Target,"201 E Grand River Ave, East Lansing, MI 48823, United States",42.73506820000001,-84.48223790000002
Target,"1865 N National Rd, Columbus, IN 47201, United States",39.2188889,-85.88444439999999
Target,"1050 Fording Island Rd, Bluffton, SC 29910, United States",32.2549856,-80.85024290000001
Target,"2120 Apalachee Pkwy, Tallahassee, FL 32301, United States",30.4329696,-84.24451119999999
Target,"1850 Adams St, Mankato, MN 56001, United States",44.17335,-93.95152630000001
Target,"2400 Bernadette Dr, Columbia, MO 65203, United States",38.9642162,-92.3777605
Target,"14333 State Hwy 13, Savage, MN 55378, United States",44.7435888,-93.3771735
Target,"15005 SW 88th St, Miami, FL 33196, United States",25.6856472,-80.4377361
Target,"7800 SW 104th St, Miami, FL 33156, United States",25.6727742,-80.3227175
Target,"4500 Veterans Memorial Blvd, Metairie, LA 70006, United States",30.0033333,-90.18444439999999
Target,"4271 S Tamiami Trail, Venice, FL 34293, United States",27.0522222,-82.3911111
Target,"2001 Millerville Rd, Baton Rouge, LA 70816, United States",30.4408333,-91.0216667
Target,"17810 W Center Rd, Omaha, NE 68130, United States",41.236368,-96.1934696
Target,"333 N 48th St, Lincoln, NE 68504, United States",40.8163781,-96.65539729999999
Target,"2727 N Maize Rd, Wichita, KS 67205, United States",37.732602,-97.465514
Target,"1701 S Yale Ave, Tulsa, OK 74112, United States",36.1376321,-95.9199357
Target,"4223 Washington Rd, Evans, GA 30809, United States",33.527267,-82.118551
Target,"5400 N May Ave, Oklahoma City, OK 73112, United States",35.524257,-97.5639446
Target,"2580 Shearn St, Houston, TX 77007, United States",29.7747222,-95.38499999999999
Target,"301 Carroll St, Fort Worth, TX 76107, United States",32.7555556,-97.35305559999999
Target,"5401 Bosque Blvd, Waco, TX 76710, United States",31.5350182,-97.1930096
Target,"1101 C-bar Ranch Trail Lot #2, Cedar Park, TX 78613, United States",30.5286332,-97.8129596
Target,"2300 W Ben White Blvd, Austin, TX 78704, United States",30.2333431,-97.7915191
Target,"1415 Eglin St, Rapid City, SD 57701, United States",44.0987206,-103.1885537
Target,"8601 Research Blvd, Austin, TX 78758, United States",30.3626591,-97.71541599999999
Target Mobile,"7129 O'Kelly Chapel Rd, Cary, NC 27519, United States",35.8445117,-78.8849589
Target,"1110 S 300 W, Salt Lake City, UT 84101, United States",40.7446054,-111.9023661
Target,"275 S River Rd, St. George, UT 84790, United States",37.1033333,-113.5538889
Target,"1621 S Alameda St, Compton, CA 90220, United States",33.880166,-118.2196756
Target,"2255 S El Camino Real, Oceanside, CA 92054, United States",33.1842749,-117.3302602
Target,"651 W Sepulveda Blvd, Carson, CA 90745, United States",33.80976,-118.2860988
Target,"9401 NE Cascades Pkwy, Portland, OR 97220, United States",45.5771362,-122.5652253
Target,"8800 Whittier Blvd, Pico Rivera, CA 90660, United States",34.0007177,-118.0866743
Target,"1450 Ala Moana Blvd Ste 2401, Honolulu, HI 96814, United States",21.292756,-157.842287
Target,"4380 Lawehana St, Honolulu, HI 96818, United States",21.3552154,-157.9293523
Target,"74-5455 Makala Blvd, Kailua-Kona, HI 96740, United States",19.6483172,-156.002096
Target,"345 Hahani St, Kailua, HI 96734, United States",21.391277,-157.7395156
Target,"4450 Kapolei Pkwy #100, Kapolei, HI 96707, United States",21.3316653,-158.0927095
Target,"391 Makaala St, Hilo, HI 96720, United States",19.7006937,-155.0597618
Target,"100 Ho'okele St, Kahului, HI 96732, United States",20.8745642,-156.4549112
Target,"1441 Coral Ridge Ave, Coralville, IA 52241, United States",41.6914884,-91.59960679999999
Target,"3414 8th St SW, Altoona, IA 50009, United States",41.6413563,-93.5042275
Target,"11148 Plum Dr, Urbandale, IA 50322, United States",41.6474169,-93.7671496
Target,"5405 Mills Civic Pkwy, West Des Moines, IA 50266, United States",41.5619496,-93.7793562
Target,"1501 E San Marnan Dr, Waterloo, IA 50702, United States",42.4657947,-92.32729189999999
Target,"2135 SE Delaware Ave, Ankeny, IA 50021, United States",41.709508,-93.57874009999999
Target,"5225 Elmore Avenue, Davenport, IA 52807, United States",41.5726547,-90.5259018
Target,"3400 Edgewood Rd SW, Cedar Rapids, IA 52404, United States",41.9445138,-91.7172377
Target,"1800 Valley W Dr, West Des Moines, IA 50266, United States",41.5996362,-93.7533488
Target,"5901 Douglas Ave, Urbandale, IA 50322, United States",41.6298858,-93.7006615
Target,"5775 Sunnybrook Dr, Sioux City, IA 51106, United States",42.4482456,-96.3335847
Target,"320 S Duff Ave, Ames, IA 50010, United States",42.0194275,-93.6067995
Target,"3804 Metro Dr, Council Bluffs, IA 51501, United States",41.220226,-95.8392811
Target,"3450 4th St SW, Mason City, IA 50401, United States",43.15024680000001,-93.25317679999999
Target,"3500 Dodge St, Dubuque, IA 52003, United States",42.48964369999999,-90.72203329999999
Target,"1030 Blairs Ferry Rd NE, Cedar Rapids, IA 52402, United States",42.0370493,-91.6508939
Target,"214 Viking Plaza Dr, Cedar Falls, IA 50613, United States",42.4812946,-92.4442618
Target,"1111 E Army Post Rd Suite 2204, Des Moines, IA 50315, United States",41.5237436,-93.6026748
Target,"2910 1st Ave S, Fort Dodge, IA 50501, United States",42.5062714,-94.15741729999999
Target,"525 S Gear Ave, West Burlington, IA 52655, United States",40.82085379999999,-91.1719789
Target,"1021 S Highline Pl, Sioux Falls, SD 57110, United States",43.5386112,-96.6554259
Target,"7200 Dodge St, Omaha, NE 68114, United States",41.2610346,-96.0248345
Target,"3201 Iowa St, Lawrence, KS 66046, United States",38.9256847,-95.2642628
Target,"2171 S 25th E, Idaho Falls, ID 83406, United States",43.47752759999999,-111.9834671
Target,"315 W Canfield Ave, Coeur d'Alene, ID 83815, United States",47.7348138,-116.7911071
Target,"1611 Blue Lakes Blvd N, Twin Falls, ID 83301, United States",42.5912036,-114.4634832
Target,"633 N Milwaukee St, Boise, ID 83704, United States",43.6101944,-116.2864427
Target,"6280 N Eagle Rd, Boise, ID 83713, United States",43.6612473,-116.351739
Target,"16300 N Marketplace Blvd, Nampa, ID 83687, United States",43.6101371,-116.5893267
Target,"401 E Illinois St, Chicago, IL 60611, United States",41.8909049,-87.61739229999999
Target,"3100 W, IL-60, Mundelein, IL 60060, United States",42.2844533,-88.0444225
Target,"12800 Illinois Rte 59, Plainfield, IL 60585, United States",41.6498451,-88.2057571
Target,"1615 IL-50, Bourbonnais, IL 60914, United States",41.173919,-87.853984
Target,"4701 N Illinois St, Fairview Heights, IL 62208, United States",38.572529,-89.9874162
Target,"5601 Belleville Crossing St, Belleville, IL 62226, United States",38.5262566,-90.0318511
Target,"800 Broadview Village Square, Broadview, IL 60155, United States",41.85501199999999,-87.8509284
Target,"850 W North Ave, Melrose Park, IL 60160, United States",41.9052039,-87.8434642
Target,"7300 W 191st St, Tinley Park, IL 60487, United States",41.5451535,-87.7961388
Target,"1235 E Higgins Rd, Schaumburg, IL 60173, United States",42.0374954,-88.0489545
Target,"3020 Walter Payton Memorial Hwy, Oswego, IL 60543, United States",41.6976752,-88.3196643
Target,"3445 Freedom Dr, Springfield, IL 62704, United States",39.7497222,-89.71083329999999
Target,"130 S Mannheim Rd, Hillside, IL 60162, United States",41.8680556,-87.8875
Target,"9250 Joliet Rd, Hodgkins, IL 60525, United States",41.7808933,-87.8596867
Target,"28201 Diehl Rd, Warrenville, IL 60555, United States",41.8006166,-88.1695968
Target,"1 S State St, Chicago, IL 60603, United States",41.8818756,-87.6275442
Target,"2102 N Prospect Ave, Champaign, IL 61822, United States",40.1419295,-88.2547879
Target,"2350 Troy Rd, Edwardsville, IL 62025, United States",38.7830709,-89.9485925
Target,"1800 Orchard Gateway Blvd, North Aurora, IL 60542, United States",41.7979739,-88.36523439999999
Target,"1001 S Sutton Rd, Streamwood, IL 60107, United States",42.0172669,-88.2002388
Target,"355 W Mound Rd, Decatur, IL 62526, United States",39.8902174,-88.9590407
Target,"6525 W Diversey Ave, Chicago, IL 60707, United States",41.9299378,-87.7897876
Target,"2701 Plainfield Rd, Joliet, IL 60435, United States",41.5770422,-88.15361779999999
Target,"60 Yorktown Shopping Center, Lombard, IL 60148, United States",41.8446957,-88.0028715
Target,"4120 95th St, Oak Lawn, IL 60453, United States",41.7211204,-87.72555940000001
Target,"2901 S Cicero Ave, Cicero, IL 60804, United States",41.8397484,-87.7407976
Target,"301 N Veterans Pkwy, Normal, IL 61761, United States",40.5072,-88.9580306
Target,"1951 W Jefferson Ave, Naperville, IL 60540, United States",41.77149199999999,-88.20326990000001
Target,"2621 W Schaumburg Rd, Schaumburg, IL 60194, United States",42.022825,-88.1462083
Target,"6560 E State St, Rockford, IL 61108, United States",42.2703164,-88.988348
Target,"530 Randall Rd, South Elgin, IL 60177, United States",41.9759758,-88.3437924
Target,"3050 N Lewis Ave, Waukegan, IL 60087, United States",42.4078186,-87.85684499999999
Target,"4466 N Broadway, Chicago, IL 60640, United States",41.9633972,-87.6564222
Target,"5580 Northwest Hwy, Crystal Lake, IL 60014, United States",42.22915099999999,-88.304987
Target,"4433 S Pulaski Rd, Chicago, IL 60632, United States",41.8125024,-87.7219988
Target,"2656 N Elston Ave, Chicago, IL 60647, United States",41.9286273,-87.6849459
Target,"2209 Howard St, Evanston, IL 60202, United States",42.02095,-87.705353
Target,"17605 S Halsted St, Homewood, IL 60430, United States",41.5691667,-87.6336111
Target,"900 42nd Ave Dr, Moline, IL 61265, United States",41.46910099999999,-90.5243031
Target,"2555 Sycamore Rd, DeKalb, IL 60115, United States",41.955838,-88.725274
Target,"3000 W Deyoung St, Marion, IL 62959, United States",37.7490191,-88.9800514
Target,"300 S Randall Rd, Elgin, IL 60123, United States",42.0258484,-88.34203339999999
Target,"2099 Skokie Valley Rd, Highland Park, IL 60035, United States",42.1916184,-87.8258243
Target,"601 S County Farm Rd, Wheaton, IL 60187, United States",41.858998,-88.14000449999999
Target,"1652 N, Beecher Rd, Yorkville, IL 60560, United States",41.6624621,-88.46480509999999
Target,"2370 Lincoln Hwy, New Lenox, IL 60451, United States",41.5066667,-87.9208333
Target,"2333 63rd St, Woodridge, IL 60517, United States",41.7704035,-88.0386681
Target,"4370 Venture Dr, Peru, IL 61354, United States",41.3622768,-89.1293934
Target,"555 S Rand Rd, Lake Zurich, IL 60047, United States",42.1869806,-88.10456669999999
Target,"1101 W Jackson Blvd, Chicago, IL 60607, United States",41.8771823,-87.65517
Target,"175 W Army Trail Rd, Glendale Heights, IL 60139, United States",41.93827719999999,-88.0890184
Target,"3400 Green Mt Crossing Dr, Shiloh, IL 62269, United States",38.57306610000001,-89.9233613
Target,"6601 Grand Ave, Gurnee, IL 60031, United States",42.3829527,-87.96631040000001
Target,"115 N Randall Rd, Batavia, IL 60510, United States",41.852247,-88.34267799999999
Target,"4050 N Harlem Ave, Norridge, IL 60706, United States",41.953574,-87.80907429999999
Target,"1400 W Lake Cook Rd, Wheeling, IL 60090, United States",42.1538161,-88.0273648
Target,"1071 W Carl Sandburg Dr, Galesburg, IL 61401, United States",40.9758617,-90.38793199999999
Target,"313 E Townline Rd, Vernon Hills, IL 60061, United States",42.2389806,-87.9571641
Target,"300 Homer Adams Pkwy, Alton, IL 62002, United States",38.9216667,-90.1702778
Target,"7601 Kingery Hwy, Willowbrook, IL 60527, United States",41.7496588,-87.9428156
Target,"8005 Calumet Ave, Munster, IN 46321, United States",41.5675462,-87.5067229
Target,"10451 Indianapolis Blvd, Highland, IN 46322, United States",41.5239612,-87.46814959999999
Target,"1125 Veterans Pkwy, Clarksville, IN 47129, United States",38.3278386,-85.7650725
Target,"2209 State St, New Albany, IN 47150, United States",38.3049949,-85.84175979999999
Target,"4850 E Southport Rd, Indianapolis, IN 46237, United States",39.6682977,-86.0847457
Target,"10401 N Michigan Rd, Carmel, IN 46032, United States",39.93655589999999,-86.23204659999999
Target,"6101 N Keystone Ave #200, Indianapolis, IN 46220, United States",39.8659056,-86.11910449999999
Target,"895 S State Rd 135, Greenwood, IN 46143, United States",39.603403,-86.1575599
Target,"6925 38th St, Indianapolis, IN 46254, United States",39.8212745,-86.2792846
Target,"11750 Commercial Dr, Fishers, IN 46038, United States",39.9597152,-86.0097189
Target,"10202 E Washington St, Indianapolis, IN 46229, United States",39.7772754,-85.9858406
Target,"6119 Stellhorn Rd, Fort Wayne, IN 46815, United States",41.1222222,-85.0636111
Target,"10209 E US Hwy 36, Avon, IN 46123, United States",39.7606313,-86.3421587
Target,"2966 E 3rd St, Bloomington, IN 47401, United States",39.1617177,-86.4942157
Target,"1037 S Reed Rd, Kokomo, IN 46902, United States",40.475245,-86.109758
Target,"1400 E Ireland Rd, South Bend, IN 46614, United States",41.6271019,-86.2288741
Target,"3630 South St, Lafayette, IN 47905, United States",40.420043,-86.847409
Target,"2661 E U.S. Hwy 30, Merrillville, IN 46410, United States",41.4693331,-87.303294
Target,"3938 Midway Rd, Goshen, IN 46526, United States",41.6215235,-85.9055976
Target,"2673 E Main St, Plainfield, IN 46168, United States",39.7158548,-86.3551835
Target,"2420 Laporte Ave, Valparaiso, IN 46383, United States",41.4666667,-87.03111109999999
Target,"1600 E 151st St, Carmel, IN 46032, United States",40.00864,-86.128669
Target,"3801 Coldwater Rd, Fort Wayne, IN 46805, United States",41.111729,-85.13890169999999
Target,"9885 Wicker Ave, St John, IN 46373, United States",41.4394993,-87.46708799999999
Target,"3601 N Barr St, Muncie, IN 47303, United States",40.2222907,-85.3813347
Target,"155 E University Dr, Granger, IN 46530, United States",41.7179146,-86.1758041
Target,"1300 E 86th St #35, Indianapolis, IN 46240, United States",39.9157673,-86.1386597
Target,"6625 E Lloyd Expy, Evansville, IN 47715, United States",37.9752778,-87.4705556
Target,"4000 N First Ave, Evansville, IN 47710, United States",38.0153792,-87.5769217
Target,"1102 S Thomas Rd, Fort Wayne, IN 46804, United States",41.0763889,-85.2038889
Target,"4174 Westport Rd, Louisville, KY 40207, United States",38.2580556,-85.64277779999999
Target,"7551 W Morris St, Indianapolis, IN 46231, United States",39.7475912,-86.29423390000001
Target,"3600 Mall Rd, Louisville, KY 40218, United States",38.1982806,-85.6713056
Target,"4640 Taylorsville Rd, Louisville, KY 40220, United States",38.215258,-85.5952427
Target,"4101 Towne Center Dr, Louisville, KY 40241, United States",38.2972904,-85.55776999999999
Target,"5151 Frederica St, Owensboro, KY 42301, United States",37.7170103,-87.1221615
Target,"1346 E 53rd St, Chicago, IL 60615, United States",41.7996275,-87.5932719
Target,"1154 S Clark St, Chicago, IL 60605, United States",41.868229,-87.631091
Target,"10900 Stadium Pkwy, Kansas City, KS 66111, United States",39.1276417,-94.8312986
Target,"6100 Broadmoor St, Mission, KS 66202, United States",39.01809129999999,-94.6647337
Target,"15700 Shawnee Mission Pkwy, Shawnee, KS 66217, United States",39.010624,-94.767787
Target,"4375 Chouteau Trafficway, Kansas City, MO 64117, United States",39.1741785,-94.5326742
Target,"8509 State Line Rd, Kansas City, MO 64114, United States",38.9717429,-94.6073554
Target,"8420 N Madison Ave, Kansas City, MO 64155, United States",39.2488708,-94.59586329999999
Target,"9040 N Skyview Ave, Kansas City, MO 64154, United States",39.2572678,-94.65526249999999
Target,"1201 W 136th St, Kansas City, MO 64145, United States",38.8795917,-94.6067425
Target,"11501 W 97th St, Overland Park, KS 66214, United States",38.9506872,-94.71964969999999
Target,"9220 NE Barry Rd, Kansas City, MO 64157, United States",39.2478261,-94.46384619999999
Target,"15345 W 119th St, Olathe, KS 66062, United States",38.9100585,-94.7644735
Target,"12200 Blue Valley Pkwy, Overland Park, KS 66213, United States",38.9077641,-94.6751104
Target,"8101 151st St, Overland Park, KS 66223, United States",38.853231,-94.682552
Target,"20255 W 154th St, Olathe, KS 66062, United States",38.8486111,-94.8202778
Target,"160 Pavilion Pkwy, Newport, KY 41071, United States",39.0883709,-84.4781366
Target,"131 W Reynolds Rd, Lexington, KY 40503, United States",37.9927778,-84.5252778
Target,"1100 Hansel Ave, Florence, KY 41042, United States",39.01972629999999,-84.6339684
Target,"1940 Pavilion Way, Lexington, KY 40509, United States",38.02244659999999,-84.4148045
Target,"160 American Ave, Bowling Green, KY 42104, United States",36.9488908,-86.43574009999999
Target,"12975 Shelbyville Rd #100, Louisville, KY 40243, United States",38.2461057,-85.5151904
Target,"1631 Ring Rd, Elizabethtown, KY 42701, United States",37.7288226,-85.8800156
Target,"500 S Upper St #110, Lexington, KY 40508, United States",38.0433392,-84.503281
Target,"7311 Jefferson Blvd, Louisville, KY 40219, United States",38.1460152,-85.6730652
Target,"2823 Wilma Rudolph Blvd, Clarksville, TN 37040, United States",36.5863299,-87.2924785
Target,"3225 Louisiana Ave, Lafayette, LA 70501, United States",30.26555969999999,-91.9964105
Target,"69320 LA-21, Covington, LA 70433, United States",30.4422583,-90.1399167
Target,"4313 Ambassador Caffery Pkwy, Lafayette, LA 70508, United States",30.1601922,-92.04902059999999
Target,"2030 Hammond Square Dr, Hammond, LA 70403, United States",30.4811437,-90.46179479999999
Target,"2206 Memorial Dr, Alexandria, LA 71301, United States",31.2802352,-92.45880609999999
Target,"1401 W Esplanade Ave Ste 200, Kenner, LA 70065, United States",30.0160879,-90.2493898
Target,"1720 W Prien Lake Rd, Lake Charles, LA 70601, United States",30.2002484,-93.2465775
Target,"1727 Martin Luther King Blvd, Houma, LA 70360, United States",29.6106378,-90.7572915
Super Target,"6885 Siegen Ln, Baton Rouge, LA 70809, United States",30.3844989,-91.0605162
Target,"3100 FM 365 #90, Port Arthur, TX 77642, United States",29.9462425,-93.9889589
Target Grocery,"1731 Manhattan Blvd, Harvey, LA 70058, United States",29.8899884,-90.0533991
Target,"564 Massachusetts Ave, Cambridge, MA 02139, United States",42.3643796,-71.1026694
Target,"50 Holyoke St, Holyoke, MA 01040, United States",42.1675854,-72.642051
Target,"400 Lynn Fells Pkwy, Saugus, MA 01906, United States",42.4820348,-71.0239702
Target,"1341 Boylston St, Boston, MA 02215, United States",42.3443457,-71.0998238
Target,"101 Commerce Way, Woburn, MA 01801, United States",42.5187484,-71.13479389999999
Target,"181 Plain St, Lowell, MA 01852, United States",42.6239178,-71.3175493
Target,"1 Mystic View Rd, Everett, MA 02149, United States",42.3987431,-71.0723234
Target,"605 Boston Post Rd E, Marlborough, MA 01752, United States",42.3486479,-71.5051727
Target,"400 Cochituate Rd, Framingham, MA 01701, United States",42.3057841,-71.3984066
Target,"180 Somerville Ave, Somerville, MA 02143, United States",42.37638889999999,-71.0908333
Target,"7 Allstate Rd, Dorchester, MA 02125, United States",42.3293107,-71.0632873
Target,"550 Arsenal St, Watertown, MA 02472, United States",42.3646788,-71.157166
Target,"655 Cheshire Rd, Lanesborough, MA 01237, United States",42.4952778,-73.2063889
Target,"367 Russell St, Hadley, MA 01035, United States",42.3570501,-72.5466174
Target,"36 Furlong Dr, Revere, MA 02151, United States",42.3999367,-71.0002365
Target,"70 Worcester-Providence Turnpike #100, Millbury, MA 01527, United States",42.193964,-71.774827
Target,"221 University Ave, Westwood, MA 02090, United States",42.2049561,-71.1557499
Target,"1 Hawes Way, Stoughton, MA 02072, United States",42.1522517,-71.0719651
Target,"210 Ballardvale St, Wilmington, MA 01887, United States",42.5897408,-71.1601639
Target,"1205 S Washington St, North Attleborough, MA 02760, United States",41.9401394,-71.35258569999999
Target,"86 Orchard Hill Park Dr, Leominster, MA 01453, United States",42.5271763,-71.7136361
Target,"529 Lincoln St, Worcester, MA 01605, United States",42.2920242,-71.7742956
Target,"250 Granite St Suite 121, Braintree, MA 02184, United States",42.2223478,-71.02327939999999
Target,"250 Fortune Blvd, Milford, MA 01757, United States",42.1605707,-71.4981145
Target,"91 Taunton St, Plainville, MA 02762, United States",42.0336159,-71.3103923
Target,"330 Turnpike Rd, Westborough, MA 01581, United States",42.2798721,-71.6554403
Target,"67 Pleasant Valley St, Methuen, MA 01844, United States",42.7402712,-71.1606217
Target,"79 Commerce Way, Seekonk, MA 02771, United States",41.7961059,-71.3203321
Target,"34 Cambridge St STE 145, Burlington, MA 01803, United States",42.4840959,-71.1857783
Target,"2421 Cranberry Hwy #110, Wareham, MA 02571, United States",41.7734341,-70.7463734
Target,"579 Grand Army of the Republic Hwy #5, Swansea, MA 02777, United States",41.7493091,-71.2066109
Target,"81 Taunton Depot Dr, Taunton, MA 02780, United States",41.8779229,-71.068726
Target,"860 Commonwealth Avenue, Boston, MA 02215, United States",42.350626,-71.11403299999999
Target,"479 State Rd, North Dartmouth, MA 02747, United States",41.6371612,-71.0030831
Target,"227 Highland Ave, Salem, MA 01970, United States",42.5031905,-70.9191823
Target,"1167 Washington St, Hanover, MA 02339, United States",42.1373972,-70.8388611
Target,"101 Independence Mall Way, Kingston, MA 02364, United States",41.971612,-70.71741779999999
Target,"240 Independence Way, Danvers, MA 01923, United States",42.55313,-70.937567
Target,"41 Robert Dr, South Easton, MA 02375, United States",42.0277778,-71.1436111
Target,"4165 Washington St, Roslindale, MA 02131, United States",42.288287,-71.12664699999999
Target,"471 Salem St, Medford, MA 02155, United States",42.42298359999999,-71.0888315
Target,"35 Computer Dr, Haverhill, MA 01832, United States",42.78783,-71.1153288
Target,"822 Somerville Ave, Cambridge, MA 02140, United States",42.3886479,-71.1185655
Target,"113 Main St, Stoneham, MA 02180, United States",42.495035,-71.1034207
Target,"385 Centre Ave, Abington, MA 02351, United States",42.1105179,-70.9276245
Target,"793 Iyannough Rd, Hyannis, MA 02601, United States",41.6671123,-70.29485489999999
Target,"3343 Corridor Marketplace, Laurel, MD 20724, United States",39.0969863,-76.8098428
Target,"12000 Cherry Hill Rd, Silver Spring, MD 20904, United States",39.0515932,-76.9567896
Target,"3500 East-West Hwy Ste 1200, Hyattsville, MD 20782, United States",38.9685305,-76.9551242
Target,"4390 Montgomery Rd, Ellicott City, MD 21043, United States",39.250531,-76.81734999999999
Target,"11200 Reisterstown Rd, Owings Mills, MD 21117, United States",39.43283290000001,-76.7992079
Target,"3559 Boston St, Baltimore, MD 21224, United States",39.2747687,-76.5661563
Target,"9901 York Rd, Cockeysville, MD 21030, United States",39.4622145,-76.6334476
Target,"6717 Ritchie Hwy, Glen Burnie, MD 21061, United States",39.1903422,-76.60982000000001
Target,"1238 Putty Hill Ave, Towson, MD 21286, United States",39.394724,-76.58134299999999
Target,"1737 Reisterstown Rd, Pikesville, MD 21208, United States",39.3852272,-76.7312622
Target,"6100 Greenbelt Rd, Greenbelt, MD 20770, United States",38.9988564,-76.9066089
Target,"2384 Brandermill Blvd, Gambrills, MD 21054, United States",39.03424890000001,-76.6839178
Target,"10500 Campus Way S, Upper Marlboro, MD 20774, United States",38.8962324,-76.8272268
Target,"5700 Bou Ave, Rockville, MD 20852, United States",39.0565944,-77.11474170000001
Target,"7501 Baltimore Ave STE #1, College Park, MD 20740, United States",38.9822287,-76.9376242
Target,"1911 Towne Centre Blvd, Annapolis, MD 21401, United States",38.9805693,-76.5408188
Target,"15922 Crain Hwy, Brandywine, MD 20613, United States",38.6722222,-76.87305560000001
Target,"25 Grand Corner Ave, Gaithersburg, MD 20878, United States",39.1189334,-77.202372
Target,"10401 Martin Luther King Jr Hwy, Bowie, MD 20720, United States",38.9534003,-76.825064
Target,"20908 Frederick Rd, Germantown, MD 20876, United States",39.1986399,-77.2489738
Target,"11160 Veirs Mill Rd, Silver Spring, MD 20902, United States",39.0368361,-77.0548273
Target,"4600 Mitchellville Rd, Bowie, MD 20716, United States",38.9525,-76.7225
Target,"200 Malcolm Dr, Westminster, MD 21157, United States",39.5672852,-76.9745315
Target,"6831 Wisconsin Ave, Bethesda, MD 20815, United States",38.9782392,-77.0909613
Target,"5437 Urbana Pike, Frederick, MD 21704, United States",39.382408,-77.39773450000001
Target,"11160 Veirs Mill Rd, Silver Spring, MD 20902, United States",39.0367538,-77.0567835
Target,"60 Shining Willow Way, La Plata, MD 20646, United States",38.541151,-76.98174999999999
Target,"17213 Cole Rd, Hagerstown, MD 21740, United States",39.6199343,-77.7733272
Target,"6163 Oxon Hill Rd, Oxon Hill, MD 20745, United States",38.8060389,-76.9832077
Target,"7828 Georgia Ave NW, Washington, DC 20012, United States",38.9844712,-77.0268435
Target,"4500 Wisconsin Ave NW, Washington, DC 20016, United States",38.9481942,-77.08035
Target,"3505 Connecticut Ave NW, Washington, DC 20008, United States",38.9358456,-77.0580213
Target,"6600 Springfield Mall, Springfield, VA 22150, United States",38.7757015,-77.17382549999999
Target,"6600 Richmond Hwy, Alexandria, VA 22306, United States",38.7756437,-77.0831412
Target,"6100 Arlington Blvd, Falls Church, VA 22044, United States",38.8682166,-77.1423221
Target,"1515 New York Ave NE, Washington, DC 20002, United States",38.91594,-76.9827279
Target,"500 S Washington St, Falls Church, VA 22046, United States",38.8794985,-77.1779468
Target,"5115 Leesburg Pike, Falls Church, VA 22041, United States",38.8444611,-77.1186556
Target,"4310 Fortuna Center Plaza, Dumfries, VA 22025, United States",38.5978493,-77.3327092
Target,"1500 Wilson Blvd, Rosslyn, VA 22209, United States",38.8946482,-77.0744419
Target,"1200 Edwards Ferry Rd NE, Leesburg, VA 20176, United States",39.115657,-77.5348923
Target,"12197 Sunset Hills Rd, Reston, VA 20190, United States",38.9552481,-77.37018210000001
Target,"46201 Potomac Run Plaza, Sterling, VA 20164, United States",39.0258023,-77.40071929999999
Target,"1090 Stafford Market Pl, Stafford, VA 22556, United States",38.4686853,-77.407887
Target,"200 Running Hill Rd, South Portland, ME 04106, United States",43.6335613,-70.3480714
Target,"125 Topsham Fair Mall Rd, Topsham, ME 04086, United States",43.933644,-69.9856428
Target,"119 Crossing Way, Augusta, ME 04330, United States",44.3120944,-69.8057331
Target,"430 Mariner Way, Biddeford, ME 04005, United States",43.473917,-70.5149852
Target,"11 Andrews Rd, Somersworth, NH 03878, United States",43.2346302,-70.8851455
Target,"1450 Greenland Rd #1, Greenland, NH 03840, United States",43.0495526,-70.8185324
Target Marketing Maine,"120 Tillson Ave #205, Rockland, ME 04841, United States",44.1050135,-69.10312069999999
Target,"80 D'Amante Dr, Concord, NH 03301, United States",43.2182987,-71.4845716
Target,"100 Quality Dr, Hooksett, NH 03106, United States",43.045174,-71.46046539999999
Target,"220 S River Rd, Bedford, NH 03110, United States",42.9403408,-71.47379169999999
Target,"203 S Broadway, Salem, NH 03079, United States",42.7647987,-71.2155859
Target,"600 Amherst St, Nashua, NH 03063, United States",42.798877,-71.53698299999999
Target,"310 Daniel Webster Hwy, Nashua, NH 03060, United States",42.7027642,-71.4374484
Target Mobile,"60 Longview Dr, Bangor, ME 04401, United States",44.8420962,-68.7422836
Target,"155 Dorset St, South Burlington, VT 05403, United States",44.46606389999999,-73.1828833
Target,"60 Smithfield Blvd #49, Plattsburgh, NY 12901, United States",44.7038045,-73.4926256
Target Mobile,"119 Crossing Way, Augusta, ME 04330, United States",44.3121379,-69.8059305
On Target Utility Services,"617 Water St, Gardiner, ME 04345, United States",44.220062,-69.7887511
Target,"30020 M-5, Farmington Hills, MI 48336, United States",42.45251080000001,-83.3439255
Target,"15901 Ford Rd, Dearborn, MI 48126, United States",42.3274833,-83.19896
Target,"14099 Pardee Rd, Taylor, MI 48180, United States",42.2032815,-83.25516449999999
Target,"4300 24th Ave, Fort Gratiot Twp, MI 48059, United States",43.0344444,-82.4530556
Target,"51400 Gratiot Ave, Chesterfield, MI 48051, United States",42.6770477,-82.8288421
Target,"20100 Haggerty Rd, Livonia, MI 48152, United States",42.4343529,-83.4309212
Target,"29451 Plymouth Rd, Livonia, MI 48150, United States",42.3664381,-83.3341605
Target,"1301 Coolidge Hwy, Troy, MI 48084, United States",42.5450387,-83.1901659
Target,"2400 S Telegraph Rd, Bloomfield Hills, MI 48302, United States",42.603593,-83.29391009999999
Target,"28800 Dequindre Rd, Warren, MI 48092, United States",42.5035455,-83.0831535
Target,"43670 Ford Rd, Canton, MI 48187, United States",42.3236111,-83.4713889
Target,"2310 Metro Pkwy, Sterling Heights, MI 48310, United States",42.5616751,-83.08468630000002
Target,"33860 S Gratiot Ave, Clinton Twp, MI 48035, United States",42.5457703,-82.90240399999999
Target,"3100 Fairlane Dr, Allen Park, MI 48101, United States",42.285075,-83.2072444
Target,"27100 Wixom Rd, Novi, MI 48374, United States",42.487763,-83.53403
Target,"8043 Challis Rd, Brighton, MI 48116, United States",42.5450378,-83.7921546
Target,"26650 Ford Rd, Dearborn Heights, MI 48127, United States",42.3285692,-83.3023305
Target,"30333 Southfield Rd, Southfield, MI 48076, United States",42.5129561,-83.22507159999999
Target,"32001 John R Rd, Madison Heights, MI 48071, United States",42.52805559999999,-83.1080556
Target,"G3515 Miller Rd, Flint, MI 48507, United States",42.9835082,-83.74863189999999
Target,"5120 28th St SE, Grand Rapids, MI 49512, United States",42.9077911,-85.54142379999999
Target,"1076 Jackson Crossing, Jackson, MI 49202, United States",42.2667458,-84.4263884
Target,"500 E Edgewood Blvd, Lansing, MI 48911, United States",42.663247,-84.54370899999999
Target,"35401 Warren Rd, Westland, MI 48185, United States",42.33671409999999,-83.3909171
Target,"6839 S Westnedge Ave, Portage, MI 49002, United States",42.2180556,-85.5883333
Target,"6820 Eastman Ave, Midland, MI 48642, United States",43.6584741,-84.2411216
Target,"3130 44th St SW, Grandville, MI 49418, United States",42.881653,-85.74030069999999
Target,"2772 Tittabawassee Rd, Saginaw, MI 48604, United States",43.4832883,-83.9708296
Target,"23555 Allen Rd, Woodhaven, MI 48183, United States",42.137401,-83.224961
Target,"5455 Clyde Park Ave SW, Wyoming, MI 49509, United States",42.8649194,-85.6857167
Target,"3255 Owen Rd, Fenton, MI 48430, United States",42.786786,-83.7374576
Target,"4890 Marsh Rd, Okemos, MI 48864, United States",42.7245831,-84.41267959999999
Target,"5700 Beckley Rd, Battle Creek, MI 49015, United States",42.2602088,-85.18494369999999
Target,"495 Haggerty Rd, Walled Lake, MI 48390, United States",42.5342764,-83.4419695
Target,"5350 W Main St, Kalamazoo, MI 49009, United States",42.2985164,-85.65531320000001
Target,"650 Brown Rd, Auburn Hills, MI 48326, United States",42.706087,-83.2917253
Target,"8200 26 Mile Rd, Shelby Charter Twp, MI 48316, United States",42.7111746,-83.0326256
Target,"3248 Alpine Ave NW, Walker, MI 49544, United States",43.022302,-85.6869274
Target,"10025 E Highland Rd, Howell, MI 48843, United States",42.6355462,-83.7569844
Target,"4097 E Blue Grass Rd, Mt Pleasant, MI 48858, United States",43.5768499,-84.76566489999999
Target,"3456 W Shore Dr, Holland, MI 49424, United States",42.8313128,-86.0910646
Target,"5057 Harvey St, Muskegon, MI 49444, United States",43.1608333,-86.2091667
Target,"3130 W South Airport Rd W, Traverse City, MI 49684, United States",44.725534,-85.63785279999999
Target,"1925 Marketplace Dr SE, Caledonia, MI 49316, United States",42.846402,-85.615915
Target,"3250 US-41, Marquette, MI 49855, United States",46.5516618,-87.4599271
Target,"13221 Hall Rd, Shelby Charter Twp, MI 48315, United States",42.628161,-82.9972655
Target,"3749 Carpenter Rd, Ypsilanti, MI 48197, United States",42.2359068,-83.67656199999999
Target,"5609 W Saginaw Hwy, Lansing, MI 48917, United States",42.7379553,-84.6291085
Target,"20877 Hall Rd, Macomb, MI 48044, United States",42.6309889,-82.9126278
Target,"47330 Michigan Ave, Canton, MI 48188, United States",42.2700792,-83.50354229999999
Target,"5225 Monroe St, Toledo, OH 43623, United States",41.699098,-83.65412719999999
Target,"817 W Alexis Rd, Toledo, OH 43612, United States",41.7208001,-83.560465
On Target Guns & Gunsmithing,"6984 W Main St, Kalamazoo, MI 49009, United States",42.2965334,-85.6863652
Target Sports,"30482 Woodward Ave, Royal Oak, MI 48073, United States",42.5137108,-83.1815878
Target,"3601 MN-100, St Louis Park, MN 55416, United States",44.9370621,-93.3468121
Target,"8900 MN-7, St Louis Park, MN 55426, United States",44.93602780000001,-93.3933865
Target,"1001 13th St S, Virginia, MN 55792, United States",47.51104640000001,-92.548997
Target,"1370 MN-15, Hutchinson, MN 55350, United States",44.8680627,-94.37840469999999
Target,"4404 MN-29, Alexandria, MN 56308, United States",45.8499495,-95.3905132
Target,"2323 MN-3 S, Northfield, MN 55057, United States",44.4336377,-93.1863389
Target,"900 Nicollet Mall, Minneapolis, MN 55403, United States",44.974968,-93.2741755
Target,"2500 E Lake St, Minneapolis, MN 55406, United States",44.9494444,-93.2369444
Target,"755 53rd Ave NE, Fridley, MN 55421, United States",45.0660667,-93.2518234
Target,"2199 MN-36 E, North St Paul, MN 55109, United States",45.0138183,-93.00971539999999
Target,"1515 County B Rd W, Roseville, MN 55113, United States",45.0076441,-93.16365739999999
Target,"1300 University Ave W, St Paul, MN 55104, United States",44.9527377,-93.1556919
Target,"449 Commerce Dr, Woodbury, MN 55125, United States",44.93971699999999,-92.909384
Target,"7535 W Broadway Ave, Brooklyn Park, MN 55428, United States",45.0909984,-93.37855689999999
Target,"125 Lincoln Ave SE, St Cloud, MN 56304, United States",45.564951,-94.145442
Target,"4175 Vinewood Ln N, Plymouth, MN 55442, United States",45.0317817,-93.4507734
Target,"1329 5th St SE, Minneapolis, MN 55414, United States",44.9816884,-93.2351249
Target,"7000 York Ave S, Edina, MN 55435, United States",44.8757135,-93.32358819999999
Target,"1744 Suburban Ave, St Paul, MN 55106, United States",44.94956730000001,-93.0285871
Target,"15800 87th St NE, Otsego, MN 55330, United States",45.2787216,-93.56351959999999
Target,"7200 Valley Creek Plaza, Woodbury, MN 55125, United States",44.9269386,-92.95896259999999
Target,"1500 109th Ave NE, Blaine, MN 55449, United States",45.1651076,-93.23280360000001
Target,"15300 Grove Cir N, Maple Grove, MN 55369, United States",45.1364015,-93.474988
Target,"2555 W 79th St, Bloomington, MN 55431, United States",44.8594253,-93.31107689999999
Target,"749 Apollo Dr, Lino Lakes, MN 55014, United States",45.1844191,-93.1046088
Target,"1300 W Lake St, Minneapolis, MN 55408, United States",44.9486004,-93.2959483
Target,"6445 Richfield Pkwy, Richfield, MN 55423, United States",44.8857943,-93.24858069999999
Target,"21615 S Diamond Lake Rd, Rogers, MN 55374, United States",45.1971042,-93.55405979999999
Target,"851 W 78th St, Chanhassen, MN 55317, United States",44.8616993,-93.54273909999999
Target,"975 Co Rd E East, Vadnais Heights, MN 55127, United States",45.0526607,-93.06021009999999
Target,"18275 Kenrick Ave, Lakeville, MN 55044, United States",44.6844042,-93.29139579999999
Target,"3827 Marketplace Dr NW, Rochester, MN 55901, United States",44.062985,-92.50289339999999
Target,"3800 Lexington Ave N, Shoreview, MN 55126, United States",45.0560675,-93.1446397
Target,"14546 Dellwood Dr N, Baxter, MN 56425, United States",46.3627778,-94.2416667
Target,"215 Balsam St N, Cambridge, MN 55008, United States",45.5747235,-93.2007657
Target,"1650 New Brighton Blvd, Minneapolis, MN 55413, United States",45.0052147,-93.2294158
Target,"1300 Hwy 55, Buffalo, MN 55313, United States",45.164379,-93.855566
Target,"1750 S Robert St, West St Paul, MN 55118, United States",44.8933333,-93.0780556
Target,"1902 Miller Trunk Hwy, Duluth, MN 55811, United States",46.8087506,-92.16781209999999
Target,"8225 Flying Cloud Dr., Eden Prairie, MN 55344, United States",44.8553897,-93.42579239999999
Target,"1447 E 7th St, Monticello, MN 55362, United States",45.2940331,-93.7728163
Target,"2000 Cliff Lake Rd, Eagan, MN 55122, United States",44.7916706,-93.20555449999999
Target,"4201 W Division St, St Cloud, MN 56301, United States",45.5563381,-94.2081051
Target,"3300 124th Ave NW, Coon Rapids, MN 55433, United States",45.1944473,-93.3501053
Target,"111 Pioneer Trail, Chaska, MN 55318, United States",44.8273426,-93.601213
Target,"151 Tyler Rd N, Red Wing, MN 55066, United States",44.5693346,-92.58278609999999
Target,"11990 Business Park Blvd N, Champlin, MN 55316, United States",45.1726761,-93.3877869
Target,"356 12th St SW, Forest Lake, MN 55025, United States",45.274641,-93.0007
Target,"4848 County Rd 101, Minnetonka, MN 55345, United States",44.9167059,-93.50544020000001
Target,"4611 Maine Ave SE, Rochester, MN 55904, United States",43.9541916,-92.4654623
Target,"2000 Bunker Lake Blvd NW, Andover, MN 55304, United States",45.2169386,-93.316372
Target,"5537 W Broadway Ave, Crystal, MN 55428, United States",45.05224370000001,-93.3647968
Target,"2021 Market Dr, Stillwater, MN 55082, United States",45.0372222,-92.83805559999999
Target,"1685 17th Ave E, Shakopee, MN 55379, United States",44.7758333,-93.5013889
Target,"2505 S 1st St, Willmar, MN 56201, United States",45.098083,-95.04081049999999
Target,"3301 US-10 E, Moorhead, MN 56560, United States",46.8756935,-96.728245
Target,"15560 Pilot Knob Rd, Apple Valley, MN 55124, United States",44.7238414,-93.1749329
Target,"2100 Paul Bunyan Dr NW, Bemidji, MN 56601, United States",47.4932655,-94.910621
Target,"875 Main St, Waconia, MN 55387, United States",44.8406396,-93.7711731
Target,"25 Brentwood Promenade Ct, Brentwood, MO 63144, United States",38.6278792,-90.3434953
Target,"3849 Vogel Rd, Arnold, MO 63010, United States",38.4124296,-90.39668069999999
Target,"15025 Manchester Rd, Ballwin, MO 63011, United States",38.595,-90.5472222
Target,"1825 E Primrose St, Springfield, MO 65804, United States",37.1517143,-93.2631988
Target,"1850 NW Chipman Rd, Lee's Summit, MO 64081, United States",38.93166069999999,-94.4092628
Target,"4255 Hampton Ave, St. Louis, MO 63109, United States",38.5926115,-90.2957302
Target,"17810 East 39th St S, Independence, MO 64055, United States",39.05112500000001,-94.369672
Target,"919 Hwy D, Osage Beach, MO 65065, United States",38.1613258,-92.6030811
Target,"3881 Mexico Rd, St Charles, MO 63303, United States",38.78730290000001,-90.5624079
Target,"1851 Vernaci Dr, Washington, MO 63090, United States",38.53642019999999,-90.9838017
Target,"1883 Wentzville Pkwy, Wentzville, MO 63385, United States",38.8192001,-90.88053110000001
Target,"2341 N Hwy 67, Florissant, MO 63033, United States",38.8057431,-90.3102213
Target,"1040 NE Coronado Dr, Blue Springs, MO 64014, United States",39.0236111,-94.24861109999999
Target,"735 W Stadium Blvd, Jefferson City, MO 65109, United States",38.5795338,-92.214219
Target,"4250 Rusty Rd, St. Louis, MO 63128, United States",38.506215,-90.33974789999999
Target,"197 Gravois Bluffs Plaza Dr, Fenton, MO 63026, United States",38.5025941,-90.4475676
Target,"1042 S Kirkwood Rd, Kirkwood, MO 63122, United States",38.5651837,-90.40398929999999
Target,"1106 E North Ave, Belton, MO 64012, United States",38.816182,-94.5156894
Target,"202 Siemers Dr, Cape Girardeau, MO 63701, United States",37.2996346,-89.5797764
Target,"40 THF Blvd, Chesterfield, MO 63005, United States",38.6667569,-90.5855193
Target,"2300 Highway K, O'Fallon, MO 63368, United States",38.7772442,-90.6960862
Target,"6241 Mid Rivers Mall Dr, St Peters, MO 63304, United States",38.7386814,-90.6367136
Target,"12275 St Charles Rock Rd, Bridgeton, MO 63044, United States",38.7540624,-90.42585509999999
Target,"5201 N Belt Hwy ste h, St Joseph, MO 64506, United States",39.8153021,-94.8116616
Target,"1272 Town and Country Crossing Dr, Chesterfield, MO 63017, United States",38.6206252,-90.51759919999999
Target,"7955 Highway N, Dardenne Prairie, MO 63368, United States",38.7688176,-90.7688797
Target Time Defense,"2410 NW S Outer Rd, Blue Springs, MO 64015, United States",39.0314482,-94.2919369
Target Masters,"4101 Rangeline St, Columbia, MO 65202, United States",38.9922741,-92.32413319999999
Target,"6000 Hwy 6, Missouri City, TX 77459, United States",29.5659929,-95.567717
Target,"6365 I-55, Jackson, MS 39213, United States",32.3986726,-90.1484421
Target,"3867 Promenade Pkwy, D'Iberville, MS 39540, United States",30.454921,-88.899755
Target,"170 Promenade Blvd, Flowood, MS 39232, United States",32.3435889,-90.0613381
Target,"6143 US-98 STE 80, Hattiesburg, MS 39402, United States",31.3239284,-89.3846741
Target,"3303 N Montana Ave, Helena, MT 59602, United States",46.62105810000001,-112.0187132
Target,"2000 10th Ave S, Great Falls, MT 59405, United States",47.4929236,-111.2717816
Target,"2365 US-93 N, Kalispell, MT 59901, United States",48.2355954,-114.326064
Target,"403 Main St, Billings, MT 59105, United States",45.8058345,-108.4721106
Target,"2550 Catron St, Bozeman, MT 59718, United States",45.7109358,-111.0710793
Target,"2601 Central Ave, Billings, MT 59102, United States",45.7708178,-108.5824454
Target,"2420 N Reserve St, Missoula, MT 59808, United States",46.8880304,-114.0366883
Target,"4191 The Cir At N Hills St, Raleigh, NC 27609, United States",35.8363613,-78.64181040000001
Target,"9841 Northlake Centre Pkwy, Charlotte, NC 28216, United States",35.3502758,-80.8600922
Target,"731 Sutter's Creek Blvd, Rocky Mount, NC 27804, United States",35.9722113,-77.8134591
Target,"1040 Hanes Mall Blvd, Winston-Salem, NC 27103, United States",36.0693697,-80.3207284
Target,"594 River Hwy, Mooresville, NC 28117, United States",35.5982697,-80.8710107
Target,"1628 Highwoods Blvd, Greensboro, NC 27410, United States",36.1139419,-79.8760585
Target,"8120 University City Blvd, Charlotte, NC 28213, United States",35.2930556,-80.7452778
Target,"2056 Skibo Rd, Fayetteville, NC 28314, United States",35.0547222,-78.9747222
Target,"9870 Rea Rd, Charlotte, NC 28277, United States",35.0375442,-80.8076878
Target,"8651 Brier Creek Pkwy, Raleigh, NC 27617, United States",35.9029165,-78.7855845
Target,"5420 University Pkwy, Winston-Salem, NC 27105, United States",36.1680432,-80.2792151
Target,"1201 Beaver Creek Commons Dr, Apex, NC 27502, United States",35.7447222,-78.87777779999999
Target,"4037 Durham-Chapel Hill Blvd, Durham, NC 27707, United States",35.966272,-78.959047
Target,"4841 Grove Barton Rd, Raleigh, NC 27613, United States",35.870373,-78.7195954
Target,"8210 Renaissance Pkwy, Durham, NC 27713, United States",35.9025459,-78.9559708
Target,"12000 Retail Dr, Wake Forest, NC 27587, United States",35.9744987,-78.5423431
Target,"4711 New Centre Dr, Wilmington, NC 28405, United States",34.2489316,-77.8808462
Target,"3410 Doctor M.L.K. Jr Blvd, New Bern, NC 28562, United States",35.1020908,-77.0963311
Target,"1475 University Dr, Burlington, NC 27215, United States",36.0662157,-79.5196363
Target,"1910 Catawba Valley Blvd SE, Hickory, NC 28602, United States",35.7004139,-81.3078389
Target,"2021 Walnut St, Cary, NC 27518, United States",35.7580147,-78.7383299
Target,"1040 Timber Drive East, Garner, NC 27529, United States",35.6871109,-78.5789108
Target,"2512 Hillsborough St, Raleigh, NC 27607, United States",35.7882167,-78.6687306
Target,"3040 S, Evans St, Greenville, NC 27834, United States",35.5786975,-77.3833573
Target,"2700 Timber Dr, Garner, NC 27529, United States",35.7157112,-78.6389872
Target,"1000 Shoppes At Midway Dr, Knightdale, NC 27545, United States",35.798207,-78.5093074
Target,"425 Cox Rd, Gastonia, NC 28054, United States",35.264239,-81.13847
Target,"9801 Sam Furr Rd, Huntersville, NC 28078, United States",35.4429157,-80.8617352
Target,"1212 Bridford Pkwy, Greensboro, NC 27407, United States",36.056734,-79.907263
Target,"3401 Raleigh Rd Pkwy W #1a, Wilson, NC 27896, United States",35.7405432,-77.9654886
Target,"900 Metropolitan Ave #2, Charlotte, NC 28204, United States",35.2147222,-80.8347222
Target,"115 River Hills Rd, Asheville, NC 28805, United States",35.5730556,-82.5225
Target,"6150 Bayfield Pkwy, Concord, NC 28027, United States",35.4169861,-80.6792485
Target,"8830 Albemarle Rd, Charlotte, NC 28227, United States",35.2086518,-80.6945842
Target,"7860 Rea Rd, Charlotte, NC 28277, United States",35.0586038,-80.8156383
Target,"1900 Matthews Township Pkwy, Matthews, NC 28105, United States",35.1225,-80.7063889
Target,"100 Grand Hill Pl, Holly Springs, NC 27540, United States",35.6608895,-78.8519871
Target,"1395D Western Blvd, Jacksonville, NC 28546, United States",34.7855694,-77.40449439999999
Target,"1204 Sunburst Dr, Goldsboro, NC 27534, United States",35.3801233,-77.9391823
Target,"143 W Franklin St #120, Chapel Hill, NC 27516, United States",35.911916,-79.05810939999999
Target,"12830 Walker Branch Rd, Charlotte, NC 28273, United States",35.0998115,-80.9851532
Target,"2901 W Hwy 74, Monroe, NC 28110, United States",35.0209863,-80.5810399
Target,"1090 S Main St, Kernersville, NC 27284, United States",36.1101026,-80.0993778
Target,"1050 Mall Loop Rd, High Point, NC 27262, United States",35.9939308,-80.00822629999999
Target,"9531 South Blvd, Charlotte, NC 28273, United States",35.108256,-80.87865
Target,"15 McKenna Rd, Arden, NC 28704, United States",35.4491377,-82.5362121
Target,"6350 Weddington Rd, Wesley Chapel, NC 28104, United States",34.9995545,-80.69676129999999
Target,"3001 Market Center Drive, Morrisville, NC 27560, United States",35.8051977,-78.81541
Target,"7900 Old Wake Forest Rd, Raleigh, NC 27616, United States",35.8658588,-78.5672934
Target,"2400 10th St SW, Minot, ND 58701, United States",48.20684319999999,-101.3141654
Target,"600 S 7th St, Bismarck, ND 58504, United States",46.7996381,-100.7835848
Target,"3601 32nd Ave S, Grand Forks, ND 58201, United States",47.8865133,-97.0799875
Target,"4202 13th Ave SW, Fargo, ND 58103, United States",46.8600486,-96.85204010000001
Target,"4800 3rd Ave, Kearney, NE 68845, United States",40.7223865,-99.0856913
Target,"5330 S 56th St, Lincoln, NE 68516, United States",40.76,-96.6408333
Target,"8201 S 40th St, Lincoln, NE 68516, United States",40.72811,-96.66547299999999
Target,"3808 Twin Creek Dr, Bellevue, NE 68123, United States",41.1424298,-95.9697095
Target,"4001 N 132nd St, Omaha, NE 68164, United States",41.2948237,-96.1163821
Target,"12500 K Plaza, Omaha, NE 68137, United States",41.2147615,-96.1083512
Target,"718 N Washington St, Papillion, NE 68046, United States",41.1651707,-96.0452882
Target,"6636 N 73rd Plaza, Omaha, NE 68122, United States",41.31917050000001,-96.0277235
Target,"1510 Market Ln, Norfolk, NE 68701, United States",42.0202439,-97.42959289999999
Target,"16959 Evans Plaza, Omaha, NE 68116, United States",41.2891339,-96.1797481
Target,"1401 Frontage Rd, Scottsbluff, NE 69361, United States",41.8700433,-103.6430827
Target,"46 Ash Brook Rd, Keene, NH 03431, United States",42.9287165,-72.3015449
Target,"100 14th St, Jersey City, NJ 07310, United States",40.7325899,-74.03602
Target,"130 NJ-10 #1, East Hanover, NJ 07936, United States",40.8137849,-74.38078879999999
Target,"2105 NJ-35, Middletown, NJ 07748, United States",40.412004,-74.13494589999999
Target,"2331 NJ-66, Ocean Township, NJ 07712, United States",40.231447,-74.044867
Target,"30 Kingsland Rd, Clifton, NJ 07014, United States",40.8244106,-74.1351667
Target,"570 NJ-70, Brick Township, NJ 08723, United States",40.0589083,-74.1502806
Target,"621 W Edgar Rd, Linden, NJ 07036, United States",40.6189694,-74.2436596
Target,"2690 US-22, Union, NJ 07083, United States",40.6865722,-74.3083379
Target,"400 Grand St, New York, NY 10002, United States",40.7162021,-73.98691409999999
Target,"1157 US-46, Parsippany, NJ 07054, United States",40.8619395,-74.3879609
Target,"1204 New Brunswick Ave, Phillipsburg, NJ 08865, United States",40.6740648,-75.1343715
Target,"100 Parsonage Rd, Edison, NJ 08837, United States",40.551842,-74.3323644
Target,"381 Mt Hope Ave, Rockaway, NJ 07866, United States",40.9059075,-74.55943150000002
Target,"1515 US-22, Watchung, NJ 07069, United States",40.641716,-74.4224701
Target,"45 Central Ave, Clark, NJ 07066, United States",40.6281194,-74.307925
Target,"101 Grand Ave, North Brunswick Township, NJ 08902, United States",40.4353646,-74.5041997
Target,"5000 Hadley Center Dr, South Plainfield, NJ 07080, United States",40.5482306,-74.42653609999999
Target,"112 W 34th St, New York, NY 10120, United States",40.7500922,-73.9889772
Target,"68 US-46 W, Hackettstown, NJ 07840, United States",40.8467521,-74.80847159999999
Target,"200 Promenade Blvd, Bridgewater Township, NJ 08807, United States",40.562776,-74.5527819
Target,"500 E 14th St, New York, NY 10009, United States",40.7301806,-73.9803148
Target,"2873 Richmond Ave, Staten Island, NY 10314, United States",40.5747969,-74.1668655
Target,"70 Princeton Hightstown Rd, East Windsor, NJ 08520, United States",40.2774376,-74.5411246
Target,"519 Gateway Dr, Brooklyn, NY 11239, United States",40.6528429,-73.8702141
Target,"500 Nassau Park Blvd, Princeton, NJ 08540, United States",40.306156,-74.67705819999999
Target,"4196 US-1, Monmouth Junction, NJ 08852, United States",40.3808916,-74.57598569999999
Target,"4955 U.S. 9, Howell Township, NJ 07731, United States",40.13180500000001,-74.2198284
Target,"55 U.S. 9, Manalapan Township, NJ 07726, United States",40.2917824,-74.3002711
Target,"1331 Hooper Ave, Toms River, NJ 08753, United States",39.9880799,-74.1744102
Target,"2235 Springfield Ave, Vauxhall, NJ 07088, United States",40.71555480000001,-74.2854498
Target,"209 Stafford Park Blvd, Manahawkin, NJ 08050, United States",39.710496,-74.2844921
Target,"8801 Queens Blvd, Queens, NY 11373, United States",40.7357181,-73.8744498
Target,"3550 Zafarano Dr, Santa Fe, NM 87507, United States",35.639811,-106.01335
Target,"2120 Louisiana Blvd NE, Albuquerque, NM 87110, United States",35.1015739,-106.5681229
Target,"2541 E Lohman Ave ste a, Las Cruces, NM 88011, United States",32.3179321,-106.7442322
Target,"2725 N Main St, Roswell, NM 88201, United States",33.4275948,-104.521375
Target,"8510 Montgomery Blvd NE, Albuquerque, NM 87111, United States",35.1300041,-106.5478827
Target,"4225 Crestview Dr SE, Rio Rancho, NM 87124, United States",35.2527778,-106.6513889
Target,"9371 Coors Blvd NW, Albuquerque, NM 87114, United States",35.1861954,-106.6643142
Target,"6100 Paseo Del Norte NE, Albuquerque, NM 87113, United States",35.1725909,-106.5814875
Target,"11120 Lomas Blvd NE, Albuquerque, NM 87112, United States",35.0859261,-106.5270767
Target,"4900 E Main St, Farmington, NM 87402, United States",36.7691454,-108.1478699
Target,"1901 George Dieter Dr, El Paso, TX 79936, United States",31.7698943,-106.3057284
White Sands Missile Range Target Airfield,"New Mexico, United States",32.3449838,-105.8153965
Target,"8201 I-40 W, Amarillo, TX 79121, United States",35.1859504,-101.934272
Walmart Supercenter,"233 S New York Ave, Alamogordo, NM 88310, United States",32.8871229,-105.9576864
Jal Lodge,"218 Whitworth Dr, Jal, NM 88252, United States",32.101778,-103.1912745
Target,"4001 S Maryland Pkwy, Las Vegas, NV 89119, United States",36.1169413,-115.1393068
Target,"6845 Sierra Center Pkwy, Reno, NV 89511, United States",39.462998,-119.780332
Target,"605 N Stephanie St, Henderson, NV 89014, United States",36.0651213,-115.0478906
Target,"1200 S Nellis Blvd, Las Vegas, NV 89104, United States",36.1583348,-115.0606274
Target,"3210 N Tenaya Way, Las Vegas, NV 89129, United States",36.2191667,-115.2491667
Target,"8750 W Charleston Blvd, Las Vegas, NV 89117, United States",36.1613276,-115.2863977
Target,"4100 Blue Diamond Rd, Las Vegas, NV 89139, United States",36.0408333,-115.1947222
Target,"350 W Lake Mead Pkwy, Henderson, NV 89015, United States",36.038504,-114.9941528
Target,"6371 N Decatur Blvd, Las Vegas, NV 89130, United States",36.2733333,-115.21
Target,"9725 S Eastern Ave, Las Vegas, NV 89183, United States",36.012346,-115.1224328
Target,"1550 E Lincoln Way, Sparks, NV 89434, United States",39.5355556,-119.7169444
Target,"3550 S Rainbow Blvd, Las Vegas, NV 89103, United States",36.1244068,-115.2415152
Target,"7090 N 5th St, North Las Vegas, NV 89084, United States",36.2888565,-115.1331482
Target,"695 S Green Valley Pkwy, Henderson, NV 89052, United States",36.0031372,-115.0853112
Target,"910 Jacks Valley Rd, Carson City, NV 89705, United States",39.1,-119.7780556
Target,"6480 Sky Pointe Dr, Las Vegas, NV 89131, United States",36.2801628,-115.2643585
Target,"4155 S Grand Canyon Dr, Las Vegas, NV 89147, United States",36.1142717,-115.3112189
Giant target,"Nevada, United States",37.5638326,-116.8511562
Target,"13505 20th Ave, College Point, NY 11356, United States",40.7837936,-73.83334169999999
Target,"7000 Austin St, Queens, NY 11375, United States",40.7208767,-73.8473538
Target,"1598 Flatbush Ave, Brooklyn, NY 11210, United States",40.6315004,-73.9467399
Target,"6401 18th Ave, Brooklyn, NY 11204, United States",40.61950460000001,-73.9895629
Target,"500 W Sunrise Hwy, Valley Stream, NY 11581, United States",40.6641402,-73.7201485
Target,"1715 E 13th St, Brooklyn, NY 11229, United States",40.6076482,-73.95961299999999
Target,"1730 Hempstead Turnpike, Elmont, NY 11003, United States",40.7088661,-73.70382690000001
Queens Place,"8801 Queens Blvd, Elmhurst, NY 11373, United States",40.7355974,-73.8745378
Target,"2900 Veterans Rd W, Staten Island, NY 10309, United States",40.528655,-74.232506
Target,"1144 OH-303, Streetsboro, OH 44241, United States",41.23740249999999,-81.3529361
Target,"1892 N High St, Columbus, OH 43201, United States",40.0010479,-83.0080729
Target,"35830 Detroit Rd, Avon, OH 44011, United States",41.46220599999999,-82.00963229999999
Target,"5555 Youngstown Warren Rd, Niles, OH 44446, United States",41.2162195,-80.7532817
Target,"2300 Miamisburg Centerville Rd, Dayton, OH 45459, United States",39.6326905,-84.21359869999999
Target,"2437 Taylor Park Dr, Reynoldsburg, OH 43068, United States",39.9340329,-82.7933102
Target,"1485 Polaris Pkwy, Columbus, OH 43240, United States",40.13833169999999,-82.9790745
Target,"449 Howe Ave, Cuyahoga Falls, OH 44221, United States",41.1209557,-81.4773818
Target,"4144 Buckeye Pkwy, Grove City, OH 43123, United States",39.8766667,-83.0366667
Target,"3100 W 117th St, Cleveland, OH 44111, United States",41.4681885,-81.7713314
Target,"6000 Sawmill Rd, Dublin, OH 43017, United States",40.0902627,-83.0898089
Target,"4199 Morse Crossing, Columbus, OH 43219, United States",40.0562572,-82.92081780000001
Target,"762 Arlington Ridge, Akron, OH 44312, United States",40.983936,-81.49581479999999
Target,"1717 Olentangy River Rd, Columbus, OH 43212, United States",39.9939237,-83.02751800000001
Target,"417 Boardman Poland Rd, Boardman, OH 44512, United States",41.0208359,-80.6459656
Target,"4200 Kent Rd, Stow, OH 44224, United States",41.1559715,-81.4107393
Target,"3955 E Broad St, Whitehall, OH 43213, United States",39.9708333,-82.8952778
Target,"1465 E Mall Dr, Holland, OH 43528, United States",41.6157339,-83.694863
Target,"9669 Mentor Ave, Mentor, OH 44060, United States",41.6861037,-81.2941214
Target,"1015 N Court St, Medina, OH 44256, United States",41.1547186,-81.8654215
Target,"3535 Steelyard Dr, Cleveland, OH 44109, United States",41.4578848,-81.6891534
Target,"4211 Trueman Blvd, Hilliard, OH 43026, United States",40.0382423,-83.12396240000001
Target,"1183 Williams Reserve Blvd, Wadsworth, OH 44281, United States",41.0404088,-81.69072969999999
Target,"6850 Ridge Rd, Parma, OH 44129, United States",41.378134,-81.736239
Target,"2801 W Market St, Fairlawn, OH 44333, United States",41.1280448,-81.60522979999999
Target,"1980 Lincoln Way E, Massillon, OH 44646, United States",40.80131189999999,-81.4974869
Target,"14070 Cedar Rd, University Heights, OH 44118, United States",41.5006183,-81.5328699
Target,"3369 Princeton Rd, Hamilton, OH 45011, United States",39.38788479999999,-84.5047877
Target,"1285 Som Center Rd, Mayfield Heights, OH 44124, United States",41.5247471,-81.4348945
Target,"1300 River Valley Blvd, Lancaster, OH 43130, United States",39.7300238,-82.62149989999999
Target,"2205 Walker Lake Rd, Mansfield, OH 44903, United States",40.7861111,-82.59416670000002
Target,"10560 Sawmill Pkwy, Powell, OH 43065, United States",40.1424377,-83.0950668
Target,"5584 Dressler Rd NW, North Canton, OH 44720, United States",40.8621536,-81.4314481
Target,"5700 Executive Blvd, Huber Heights, OH 45424, United States",39.8710034,-84.13349079999999
Target,"8282 Golden Link Blvd, Northfield, OH 44067, United States",41.311302,-81.52754
Target,"240 Market Dr, Elyria, OH 44035, United States",41.3888889,-82.1091667
Target,"18855 N Market Pl Dr, Aurora, OH 44202, United States",41.3570181,-81.3865094
Target,"4341 Feedwire Rd, Dayton, OH 45440, United States",39.6583593,-84.10474719999999
Target,"400 Corwin Nixon Blvd, South Lebanon, OH 45065, United States",39.3788934,-84.219138
Target,"20900 Westgate Mall, Fairview Park, OH 44126, United States",41.4577778,-81.85083329999999
Target,"36195 Euclid Ave, Willoughby, OH 44094, United States",41.6291084,-81.42994689999999
Target,"9099 Plainfield Rd, Blue Ash, OH 45236, United States",39.224019,-84.395316
Target,"9666 US-20, Rossford, OH 43460, United States",41.5434033,-83.5799509
Target,"2490 N Fairfield Rd, Beavercreek, OH 45431, United States",39.7616667,-84.0505556
Target,"4020 Milan Rd, Sandusky, OH 44870, United States",41.4210547,-82.6731109
Target,"7644 Voice of America Centre Dr, West Chester Township, OH 45069, United States",39.35641010000001,-84.361086
Target,"24646 Brookpark Rd, North Olmsted, OH 44070, United States",41.4202263,-81.8953054
Target,"8000 Oak Point Rd, Amherst, OH 44001, United States",41.4131195,-82.242541
Target,"55 Graceland Blvd, Columbus, OH 43214, United States",40.0652778,-83.0205556
Target,"900 E Kemper Rd, Springdale, OH 45246, United States",39.2883333,-84.4541667
Target,"3245 Geier Dr, Cincinnati, OH 45209, United States",39.1618704,-84.4259153
Target,"18200 Royalton Rd, Strongsville, OH 44136, United States",41.3171134,-81.8280719
Target,"8100 E Broad St, Reynoldsburg, OH 43068, United States",39.9885046,-82.7847651
Target,"100 Rivers Edge Dr, Milford, OH 45150, United States",39.1627182,-84.2750626
Target,"1970 Hilliard Rome Rd, Hilliard, OH 43026, United States",39.9908783,-83.14921919999999
Target,"9040 Colerain Ave, Cincinnati, OH 45251, United States",39.2357389,-84.58877179999999
Target,"8680 Beechmont Ave, Cincinnati, OH 45255, United States",39.0733998,-84.3137557
Target,"6150 Glenway Ave, Cincinnati, OH 45211, United States",39.1451432,-84.6201131
Target,"13924 N Pennsylvania Ave, Oklahoma City, OK 73134, United States",35.6124869,-97.5474344
Target,"8315 N Rockwell Ave, Oklahoma City, OK 73132, United States",35.555653,-97.6395153
Target,"720 SW 19th St, Moore, OK 73160, United States",35.317554,-97.4998293
Target,"7305 SE 29th St, Midwest City, OK 73110, United States",35.4370875,-97.3966207
Target,"1200 E 2nd St, Edmond, OK 73034, United States",35.6501889,-97.46391390000001
Target,"1700 Garth Brooks Blvd, Yukon, OK 73099, United States",35.4807825,-97.7639219
Target,"9000 SE Sunnyside Rd, Clackamas, OR 97015, United States",45.4315368,-122.5704992
Target,"3790 Center St NE, Salem, OR 97301, United States",44.9384041,-122.9871898
Target,"1555 N Tomahawk Island Dr, Portland, OR 97217, United States",45.6134834,-122.6833649
Target,"9800 SE Washington St, Portland, OR 97216, United States",45.515608,-122.562102
Target,"939 SW Morrison St, Portland, OR 97205, United States",45.5201104,-122.6818606
Target,"2750 Gateway St, Springfield, OR 97477, United States",44.0716667,-123.0458333
Target,"2000 Crater Lake Hwy, Medford, OR 97504, United States",42.34765609999999,-122.8773605
Target,"10775 SW Beaverton Hillsdale Hwy, Beaverton, OR 97005, United States",45.4883013,-122.7876892
Target,"4575 W 11th Ave, Eugene, OR 97402, United States",44.0489439,-123.1715008
Target,"2255 14th Ave SE, Albany, OR 97322, United States",44.6304259,-123.0781829
Target,"63435 N Hwy 97, Bend, OR 97703, United States",44.1042457,-121.3008828
Target,"21365 SW Baler Way, Sherwood, OR 97140, United States",45.366085,-122.8379822
Target,"6450 Keizer Station Blvd NE, Keizer, OR 97303, United States",45.01277779999999,-122.9947222
Target,"21500 NE Halsey St, Fairview, OR 97024, United States",45.53225399999999,-122.442364
Target,"2295 SE Tualatin Valley Hwy, Hillsboro, OR 97123, United States",45.507735,-122.956689
Target,"3031 SE Powell Blvd, Portland, OR 97202, United States",45.49753,-122.6340683
Target,"9009 SW Hall Blvd, Tigard, OR 97223, United States",45.4536111,-122.7788889
Target,"25925 SW Heather Pl, Wilsonville, OR 97070, United States",45.3325974,-122.7675504
Target,"11095 NE Evergreen Pkwy, Hillsboro, OR 97006, United States",45.5394127,-122.8640557
Target,"205 Three Rivers Dr, Kelso, WA 98626, United States",46.1421005,-122.8987476
Target,"8801 NE Hazel Dell Ave, Vancouver, WA 98665, United States",45.6862833,-122.6677834
Target,"16200 SE Mill Plain Blvd, Vancouver, WA 98684, United States",45.6170969,-122.5058997
Target,"1106 N Columbia Center Blvd, Kennewick, WA 99336, United States",46.22181699999999,-119.221888
Target,"1717 PA-228, Cranberry Twp, PA 16066, United States",40.6885494,-80.0845715
Target,"155 Mountaineer Dr, Stroudsburg, PA 18360, United States",40.9970232,-75.24510049999999
Target,"1600 N Cedar Crest Blvd, Allentown, PA 18104, United States",40.6130106,-75.5352091
Target,"3835 Dryland Way, Easton, PA 18045, United States",40.7122268,-75.2888703
Target,"1140 Commerce Blvd, Dickson City, PA 18519, United States",41.4676567,-75.63881119999999
Target,"3400 Wilkes Barre Twp Commons, Wilkes-Barre Township, PA 18702, United States",41.2377385,-75.8446178
Target,"610 N West End Blvd, Quakertown, PA 18951, United States",40.4587051,-75.3732017
Target,"6231 Penn Ave, Pittsburgh, PA 15206, United States",40.4608457,-79.9214227
Target,"749 N Krocks Rd, Allentown, PA 18106, United States",40.566465,-75.5604926
Target,"2251 York Crossing Dr, York, PA 17408, United States",39.9647877,-76.7786903
Target,"913 Norland Ave, Chambersburg, PA 17201, United States",39.94311829999999,-77.6318318
Target,"4600 High Pointe Blvd, Harrisburg, PA 17111, United States",40.2466079,-76.8060313
Target,"5125 Jonestown Rd #331, Harrisburg, PA 17112, United States",40.3086111,-76.7958333
Target,"912 Airport Center Rd, Allentown, PA 18109, United States",40.6386618,-75.44013989999999
Target,"315 Colonnade Blvd, State College, PA 16803, United States",40.813181,-77.906983
Target,"31 Wilson Ave, Hanover, PA 17331, United States",39.8271946,-76.9975152
Target,"120 Matthew Dr, Uniontown, PA 15401, United States",39.9077778,-79.7586111
Target,"2661 Freeport Rd, Pittsburgh, PA 15238, United States",40.5384828,-79.83646929999999
Target,"501 Marketplace Boulevard, Selinsgrove, PA 17870, United States",40.8423628,-76.83789089999999
Target,"2610 Pleasant Valley Rd, York, PA 17402, United States",39.9874575,-76.68107239999999
Target,"6700 Peach St, Erie, PA 16509, United States",42.0548666,-80.09490389999999
Target,"335 Washington Rd, Washington, PA 15301, United States",40.1880943,-80.2277854
Target,"550 Grandview Crossing Dr, Gibsonia, PA 15044, United States",40.6418952,-79.94160459999999
Target,"201 E Beaver Ave, State College, PA 16801, United States",40.7924604,-77.8618147
Target,"6206 US-30, Greensburg, PA 15601, United States",40.303072,-79.5956163
Target,"3850 Hempstead Turnpike, Levittown, NY 11756, United States",40.7244909,-73.4935271
Target,"428 Balltown Rd, Schenectady, NY 12304, United States",42.7753863,-73.8897456
Target,"1180 Carl D. Silver Pkwy, Fredericksburg, VA 22401, United States",38.3000388,-77.51339089999999
Target International Shipping,"1065 Edward St, Linden, NJ 07036, United States",40.6111859,-74.25399399999999
Target,"1245 Bald Hill Rd, Warwick, RI 02886, United States",41.7064713,-71.49409279999999
Target,"620 George Washington Hwy, Lincoln, RI 02865, United States",41.9381344,-71.4787065
Target,"371 Putnam Pike Ste A-250, Smithfield, RI 02917, United States",41.8771418,-71.518445
Target Park,"2053 Post Rd, Warwick, RI 02886, United States",41.7258032,-71.43943039999999
Target,"2791 David H McLeod Blvd, Florence, SC 29501, United States",34.1934891,-79.8378982
Target,"1900 Springsteen Rd, Rock Hill, SC 29730, United States",34.9386884,-80.97832939999999
Target,"7250 Rivers Ave, North Charleston, SC 29406, United States",32.9354511,-80.03599249999999
Target,"1112 Woodruff Rd, Greenville, SC 29607, United States",34.8299362,-82.3082563
Target,"6090A Garners Ferry Rd, Columbia, SC 29209, United States",33.9813889,-80.9688889
Target,"1150 Seaboard St, Myrtle Beach, SC 29577, United States",33.7127778,-78.8933333
Target,"1300 Long Grove Dr, Mt Pleasant, SC 29464, United States",32.8243583,-79.81794169999999
Target,"140 Sayebrook Pkwy, Myrtle Beach, SC 29588, United States",33.6544444,-78.97999999999999
Target,"694 Fairview Rd, Simpsonville, SC 29680, United States",34.7058563,-82.2600272
Target,"5119 Sunset Blvd, Lexington, SC 29072, United States",34.0060945,-81.1938265
Target,"10204 Two Notch Rd, Columbia, SC 29229, United States",34.1175831,-80.8772389
Target,"8199 Warren H Abernathy Hwy, Spartanburg, SC 29301, United States",34.93384229999999,-82.009086
Target,"6025 Wade Hampton Blvd, Taylors, SC 29687, United States",34.9374728,-82.27931099999999
Target,"134 Harbison Blvd, Columbia, SC 29212, United States",34.0662926,-81.16498399999999
Target,"3519 Clemson Blvd, Anderson, SC 29621, United States",34.5493852,-82.6799391
Target,"2070 Sam Rittenberg Blvd, Charleston, SC 29407, United States",32.7994537,-80.0308743
Target,"2545 Whiskey Rd, Aiken, SC 29803, United States",33.5039854,-81.7117481
Target,"450 Azalea Square Blvd, Summerville, SC 29483, United States",33.0402803,-80.157637
Target,"3600 S Louise Ave, Sioux Falls, SD 57106, United States",43.5118275,-96.7689207
Target,"3316 7th Ave SE, Aberdeen, SD 57401, United States",45.4569734,-98.4403337
Target,"2000 9th Ave SE, Watertown, SD 57201, United States",44.88823860000001,-97.0836825
Target,"5579 TN-153, Hixson, TN 37343, United States",35.14612839999999,-85.2521751
Target,"5405 Washington Pike, Knoxville, TN 37918, United States",36.0370854,-83.88859140000001
Target,"1816 Gunbarrel Rd, Chattanooga, TN 37421, United States",35.0243891,-85.15525579999999
Target,"11100 Parkside Dr, Knoxville, TN 37934, United States",35.8999854,-84.15176799999999
Target,"1851 Old Fort Pkwy, Murfreesboro, TN 37129, United States",35.8433952,-86.4258575
Target,"780 Old Hickory Blvd, Brentwood, TN 37027, United States",36.0429515,-86.7786971
Target,"803 Industrial Blvd, Smyrna, TN 37167, United States",35.9797222,-86.5713889
Target,"1701 Galleria Blvd, Franklin, TN 37067, United States",35.9660895,-86.8127669
Target,"4570 Frontage Rd NW, Cleveland, TN 37312, United States",35.2166364,-84.8657166
Target,"800 Watkins Rd, Maryville, TN 37801, United States",35.752615,-83.99121629999999
Target,"8040 Ray Mears Blvd, Knoxville, TN 37919, United States",35.9213889,-84.0480556
Target,"26 White Bridge Rd, Nashville, TN 37205, United States",36.1311597,-86.8542887
Target,"6814 Charlotte Pike, Nashville, TN 37209, United States",36.1350966,-86.89144979999999
Target,"6670 Clinton Hwy, Knoxville, TN 37912, United States",36.0088408,-84.0216477
Target,"3171 Lebanon Pike, Nashville, TN 37214, United States",36.1825191,-86.63717109999999
Target,"1004 Andrews Run, Hendersonville, TN 37075, United States",36.3344444,-86.62527779999999
Target,"1033 Crossings Blvd, Spring Hill, TN 37174, United States",35.7413853,-86.9372836
Target,"2116 N Roan St, Johnson City, TN 37601, United States",36.3424928,-82.37345049999999
Target,"2050 Gallatin Ave N, Madison, TN 37115, United States",36.3046064,-86.6941538
Target,"3064 Columbia Ave, Franklin, TN 37064, United States",35.8922709,-86.88071010000002
Target,"2626 E Stone Dr #90, Kingsport, TN 37660, United States",36.5520459,-82.4947755
Target,"401 S Mt Juliet Rd #600, Mt. Juliet, TN 37122, United States",36.169028,-86.50794599999999
Target,"1900 Town Center Blvd, Knoxville, TN 37922, United States",35.86271139999999,-84.0794765
Target,"16600 Highlands Center Blvd, Bristol, VA 24202, United States",36.6363045,-82.1101231
Target,"2100 Texas Ave, College Station, TX 77840, United States",30.61017,-96.3149624
Target,"201 E Central Texas Expy Ste 300, Harker Heights, TX 76548, United States",31.0732663,-97.66501939999999
Target,"18700 Limestone Commercial Dr #100, Pflugerville, TX 78660, United States",30.4672222,-97.5986111
Target,"8900 TX-121, McKinney, TX 75070, United States",33.1291667,-96.73111109999999
Target,"5270 S State Hwy 360, Grand Prairie, TX 75052, United States",32.6434,-97.0597595
Target,"7003 S Broadway Ave, Tyler, TX 75703, United States",32.273246,-95.309389
Target,"200 NW John Jones Dr, Burleson, TX 76028, United States",32.523685,-97.3491133
Target,"1021 W University Ave Ste B3, Georgetown, TX 78628, United States",30.6307469,-97.69873609999999
Target,"1629 N Town E Blvd, Mesquite, TX 75150, United States",32.8139572,-96.6212884
Target,"4760 TX-121, Lewisville, TX 75056, United States",33.0638198,-96.884441
Target,"739 N Hwy 67, Cedar Hill, TX 75104, United States",32.6026599,-96.9369741
Target,"1401 Glade Rd, Euless, TX 76039, United States",32.8806234,-97.1050322
Target,"3061 Wildflower Dr, Bryan, TX 77802, United States",30.6653897,-96.3216937
Target,"8532 Davis Blvd, North Richland Hills, TX 76182, United States",32.9080726,-97.1880985
Target,"6419 Skillman St, Dallas, TX 75231, United States",32.8659391,-96.74518429999999
Target,"20777 Hwy 59 N, Humble, TX 77338, United States",30.01925829999999,-95.26882409999999
Target,"601 S Plano Rd, Richardson, TX 75081, United States",32.9400349,-96.69732119999999
Target,"1101 Ira E Woods Ave, Grapevine, TX 76051, United States",32.9305641,-97.08949179999999
Target,"1801 Gulf Fwy, Dickinson, TX 77539, United States",29.4661663,-95.08447489999999
Target,"7608 NE, Zac Lentz Pkwy, Victoria, TX 77904, United States",28.8654713,-96.9994511
Target,"3550 S General Bruce Dr Bldg A100, Temple, TX 76504, United States",31.0925506,-97.38597279999999
Target,"7845 N MacArthur Blvd, Irving, TX 75063, United States",32.9134776,-96.9625093
Target,"3333 W Airport Fwy, Irving, TX 75062, United States",32.8394127,-96.9910431
Target,"150 Stacy Rd Suite 2400, Allen, TX 75002, United States",33.1234451,-96.66134799999999
Target,"3909 E 42nd St, Odessa, TX 79762, United States",31.8924497,-102.3474166
Target,"1600 W Arbrook Blvd, Arlington, TX 76015, United States",32.6838922,-97.136659
Target,"39739 Lyndon B Johnson Fwy, Dallas, TX 75237, United States",32.6500816,-96.86244909999999
Target,"5621 N Interstate 35 Frontage Rd, Austin, TX 78723, United States",30.3165534,-97.706201
Target,"8000 Denton Hwy, Watauga, TX 76148, United States",32.8893003,-97.25658179999999
Target,"1801 S Loop 288, Denton, TX 76205, United States",33.189366,-97.09866799999999
Target,"5700 Overton Ridge Blvd, Fort Worth, TX 76132, United States",32.6790605,-97.4128168
Target,"121 Louis Henna Blvd, Round Rock, TX 78664, United States",30.4795425,-97.6691008
Target,"19511, I-45, Spring, TX 77388, United States",30.0499833,-95.43467779999999
Target,"3201 Preston Rd, Frisco, TX 75034, United States",33.1046304,-96.812512
Target,"2025 N Central Expy, McKinney, TX 75070, United States",33.2204775,-96.6387464
Target,"7302 University Ave, Lubbock, TX 79423, United States",33.5282468,-101.8729513
Target,"6635 Grand Pkwy, Spring, TX 77389, United States",30.08695519999999,-95.5205196
Target,"8917 Tehama Ridge Pkwy, Fort Worth, TX 76177, United States",32.9016059,-97.3235933
Target,"5301 N Garland Ave, Garland, TX 75040, United States",32.9652835,-96.6467302
Target,"10241 Grand Pkwy, Richmond, TX 77407, United States",29.658327,-95.710495
Target,"6064 Marsha Sharp Fwy, Lubbock, TX 79407, United States",33.54788970000001,-101.9533768
Target,"1316 N Hwy 77, Waxahachie, TX 75165, United States",32.4216667,-96.8372222
Target,"1400 Precinct Line Rd, Hurst, TX 76053, United States",32.8366904,-97.1833258
Target,"5757 Fairmont Pkwy, Pasadena, TX 77505, United States",29.6522079,-95.15295309999999
Target,"700 Barnes Dr, San Marcos, TX 78666, United States",29.8465724,-97.9710334
Target,"850 Steger Towne Rd, Rockwall, TX 75032, United States",32.8936737,-96.46736039999999
Target,"202 TX-332, Lake Jackson, TX 77566, United States",29.05050749999999,-95.46498659999999
Target,"2200 Dallas Pkwy, Plano, TX 75093, United States",33.0308049,-96.82720139999999
Target,"554 W Interstate 20, Grand Prairie, TX 75052, United States",32.6782017,-97.00999999999999
Target,"503 I-45, Conroe, TX 77304, United States",30.313781,-95.47401289999999
Target,"8503 S Sam Houston Pkwy E, Houston, TX 77075, United States",29.60222,-95.26456669999999
Target,"907 W McDermott Dr, Allen, TX 75013, United States",33.099085,-96.6817366
Target,"8550 Tom Landry Fwy, Fort Worth, TX 76120, United States",32.7575915,-97.17006289999999
Target,"4701 Lakeview Pkwy, Rowlett, TX 75088, United States",32.9089797,-96.55866789999999
Target,"5959 Long Prairie Rd, Flower Mound, TX 75028, United States",33.0673823,-97.0839656
Target,"4001 Midland Dr, Midland, TX 79707, United States",32.02331,-102.1448822
Target,"7025 Park Centre Dr, Salt Lake City, UT 84121, United States",40.6230431,-111.8496857
Target,"10130 State St, Sandy, UT 84070, United States",40.5669444,-111.8930556
Target,"815 W 2000 N, Layton, UT 84041, United States",41.0872599,-111.9807074
Target,"1135 W Riverdale Rd, Riverdale, UT 84405, United States",41.1731449,-112.0068367
Target,"5518 High Market Dr, West Valley City, UT 84120, United States",40.713921,-112.023488
Target,"11525 S Pkwy Plaza Dr, South Jordan, UT 84095, United States",40.5419281,-111.9778933
Target,"7779 Jordan Landing Blvd, West Jordan, UT 84084, United States",40.6106112,-111.9833623
Target,"200 N Marketplace Dr, Centerville, UT 84014, United States",40.9182734,-111.8865468
Target,"6748 Redwood Rd, West Jordan, UT 84084, United States",40.6286689,-111.9411273
Target,"175 Center St, Orem, UT 84057, United States",40.2951288,-111.6991072
Target,"608 W Main St, American Fork, UT 84003, United States",40.3785592,-111.8152513
Target,"1290 N State St, Provo, UT 84604, United States",40.2514383,-111.6661657
Target,"10100 Brook Rd, Glen Allen, VA 23059, United States",37.6735359,-77.4627032
Target,"2060 S Independence Blvd, Virginia Beach, VA 23453, United States",36.7879618,-76.108875
Target,"2233 Upton Dr, Virginia Beach, VA 23454, United States",36.7553956,-76.010358
Target,"525 First Colonial Road, Virginia Beach, VA 23451, United States",36.8461974,-76.0223352
Target,"4554 Virginia Beach Blvd STE 500, Virginia Beach, VA 23462, United States",36.8472222,-76.1341667
Target,"5115 Leesburg Pike, Falls Church, VA 22041, United States",38.8444482,-77.1186603
Target,"10301 New Guinea Rd, Fairfax, VA 22032, United States",38.7983683,-77.3010302
Target,"13301 Gateway Center Dr, Gainesville, VA 20155, United States",38.7941452,-77.6068581
Target,"9900 Sowder Village Square, Manassas, VA 20109, United States",38.7396239,-77.5331132
Target,"14391 Chantilly Crossing Ln, Chantilly, VA 20151, United States",38.8948233,-77.44533369999999
Target,"2460 Prince William Pkwy, Woodbridge, VA 22192, United States",38.6547446,-77.28878619999999
Target,"13047 Fair Lakes Shopping Center, Fairfax, VA 22033, United States",38.855371,-77.39275339999999
Target,"9785 Jefferson Davis Hwy, Fredericksburg, VA 22407, United States",38.2251727,-77.5012306
Target,"500 S Washington St, Falls Church, VA 22046, United States",38.8797802,-77.1768741
Target,"5401 W Broad St, Richmond, VA 23230, United States",37.586316,-77.50063399999999
Target,"1245 N Military Hwy, Norfolk, VA 23502, United States",36.8653658,-76.2123563
Target,"312 Connor Dr, Charlottesville, VA 22911, United States",38.12905560000001,-78.4407453
Target,"2340 Legge Blvd, Winchester, VA 22601, United States",39.1540128,-78.167489
Target,"811 Town Center Dr, Waynesboro, VA 22980, United States",38.0563657,-78.941996
Target,"25 S Gateway Dr, Fredericksburg, VA 22406, United States",38.3448565,-77.49393220000002
Target,"9001 Staples Mill Rd, Henrico, VA 23228, United States",37.6397626,-77.5112017
Target,"15341 Montanus Dr, Culpeper, VA 22701, United States",38.483341,-77.9668866
Target,"4200 Portsmouth Blvd #600, Chesapeake, VA 23321, United States",36.8279239,-76.4143224
Target,"200 Marquis Pkwy, Williamsburg, VA 23185, United States",37.2588847,-76.6411905
Target,"1995 E Market St, Harrisonburg, VA 22801, United States",38.4258333,-78.8430556
Target,"4521 S Laburnum Ave, Richmond, VA 23231, United States",37.5310473,-77.3560298
Target,"2530 Weir Rd, Chester, VA 23831, United States",37.3505556,-77.4102778
Target,"721 Southpark Blvd, Colonial Heights, VA 23834, United States",37.248659,-77.38573430000001
Target,"7235 Bell Creek Rd, Mechanicsville, VA 23111, United States",37.599955,-77.35077199999999
Target,"4028 Wards Rd, Lynchburg, VA 24502, United States",37.3456341,-79.19144290000001
Target,"10 Crooked Run Plaza, Front Royal, VA 22630, United States",38.96333509999999,-78.19313489999999
Target,"4737 Valley View Blvd NW, Roanoke, VA 24012, United States",37.2999191,-79.9587708
Target,"191 Market St, Winchester, VA 22603, United States",39.2219937,-78.13552159999999
Target,"195 Conston Ave NW, Christiansburg, VA 24073, United States",37.1569855,-80.4223998
Target,"5001 Holt Ave, Hampton, VA 23666, United States",37.0418222,-76.3911167
Target,"155 Holt Garrison Pkwy, Danville, VA 24540, United States",36.6022934,-79.4195738
Target,"1316 Greenbrier Pkwy, Chesapeake, VA 23320, United States",36.7711037,-76.2321604
Target,"12130 Jefferson Ave, Newport News, VA 23602, United States",37.1074431,-76.491687
Target,"201 Perimeter Dr, Midlothian, VA 23113, United States",37.5109815,-77.692032
Target,"11290 W Broad St, Glen Allen, VA 23060, United States",37.6524845,-77.60564910000001
Target,"7107 Forest Hill Ave, Richmond, VA 23225, United States",37.5345318,-77.5274151
Target,"11301 Midlothian Turnpike, Richmond, VA 23235, United States",37.50384400000001,-77.60518499999999
Target,"233 Carmichael Way, Chesapeake, VA 23322, United States",36.6586111,-76.2347222
Target,"4601 Commonwealth Centre Pkwy, Midlothian, VA 23112, United States",37.4209099,-77.6341699
VI Target,"9163 Estate Thomas, St Thomas 00802, U.S. Virgin Islands",18.3416712,-64.9121779
Target Mobile,"620 George Washington Hwy, Lincoln, RI 02865, United States",41.9382713,-71.4787752
Target,"12 N Fair Ave, Yakima, WA 98901, United States",46.6060561,-120.4902499
Target Grocery,"9500 S IH 35 Frontage Rd Suite G, Austin, TX 78748, United States",30.1629477,-97.79401519999999
Target Office Products Inc.,"209 Parkway View Dr, Pittsburgh, PA 15205, United States",40.4330754,-80.1304954
Target,"3100 14th St NW #201, Washington, DC 20010, United States",38.92960000000001,-77.03294
Target,"9777 76th St, Pleasant Prairie, WI 53158, United States",42.5638759,-87.92785239999999
Target,"9400 WI-16, Onalaska, WI 54650, United States",43.8737565,-91.1940162
Target,"660 S Grand Ave, Sun Prairie, WI 53590, United States",43.1708333,-89.26777779999999
Target,"4085 WI-28, Sheboygan Falls, WI 53085, United States",43.7161506,-87.7670704
Target,"5300 US-10 E, Stevens Point, WI 54482, United States",44.5249,-89.52314299999999
Target,"4301 W Wisconsin Ave Ste 42, Appleton, WI 54913, United States",44.2680025,-88.4703237
Target,"2401 Coulee Rd, Hudson, WI 54016, United States",44.9660153,-92.7228963
Target,"750 Hilldale Way, Madison, WI 53705, United States",43.074893,-89.453822
Target,"1001 Cormier Rd, Green Bay, WI 54304, United States",44.4908321,-88.07139
Target,"4301 Lien Rd, Madison, WI 53704, United States",43.11884939999999,-89.3065331
Target,"1250 W Sunset Dr, Waukesha, WI 53189, United States",42.9895261,-88.2596907
Target,"12725 W Bluemound Rd, Brookfield, WI 53005, United States",43.0341014,-88.0707067
Target,"201 Junction Rd, Madison, WI 53717, United States",43.0623474,-89.5245132
Target,"2050 Lime Kiln Rd, Green Bay, WI 54311, United States",44.4652714,-87.98607
Target,"8989 S Howell Ave, Oak Creek, WI 53154, United States",42.8823739,-87.91632279999999
Target,"1800 S Kensington Dr, Appleton, WI 54915, United States",44.2463718,-88.3571874
Target,"7800 S Lovers Lane Rd, Franklin, WI 53132, United States",42.9033441,-88.03783700000001
Target,"6321 McKee Rd, Fitchburg, WI 53719, United States",43.0136808,-89.48233069999999
Target,"1900 S Koeller St, Oshkosh, WI 54902, United States",43.9987445,-88.57822080000001
Target,"3900 N 124th St, Wauwatosa, WI 53222, United States",43.0878056,-88.0635061
Target,"2553 Sun Valley Dr, Delafield, WI 53018, United States",43.050849,-88.3769185
Target,"2950 S Chase Ave, Milwaukee, WI 53207, United States",42.9916483,-87.9075843
Target,"1501 Miller Park Way, West Milwaukee, WI 53214, United States",43.01490200000001,-87.969816
Target,"3649 S Hastings Way, Eau Claire, WI 54701, United States",44.7811494,-91.433279
Target,"1708 N Central Ave, Marshfield, WI 54449, United States",44.684418,-90.16373399999999
Target,"1250 N Port Washington Rd, Grafton, WI 53024, United States",43.31935499999999,-87.92149350000001
Target,"5300 Durand Ave, Racine, WI 53406, United States",42.6989435,-87.84305979999999
Target,"2600 S 108th St, West Allis, WI 53227, United States",42.9970515,-88.0455164
Target,"660 N Edwards Blvd, Lake Geneva, WI 53147, United States",42.5985485,-88.4159964
Target,"N95 W, 17707 Shady Ln, Menomonee Falls, WI 53051, United States",43.189531,-88.1289394
Target,"4798 S Moorland Rd, New Berlin, WI 53151, United States",42.958551,-88.1072975
Target,"2017 Humes Rd, Janesville, WI 53545, United States",42.7220787,-88.99830349999999
Target,"2401 Kossow Rd, Waukesha, WI 53186, United States",43.034289,-88.17699449999999
Target,"485 N Rolling Meadows Dr, Fond du Lac, WI 54937, United States",43.7907148,-88.48456709999999
Target,"2707 Schofield Ave, Schofield, WI 54476, United States",44.9062424,-89.5917249
Target,"410 S Ashland Ave, Sturgeon Bay, WI 54235, United States",44.8238711,-87.40281639999999
Recob's Target Shop,"975 19th St, Prairie Du Sac, WI 53578, United States",43.298467,-89.74264699999999
Target,"860 Mankato Ave, Winona, MN 55987, United States",44.0317319,-91.6199773
Target,"9833 N Alpine Rd, Machesney Park, IL 61115, United States",42.36744230000001,-89.0276409
Target,"8655 E Point Douglas Rd S, Cottage Grove, MN 55016, United States",44.8147122,-92.9303535
Target Bluff German Haus,"208 US-12 #16, Camp Douglas, WI 54618, United States",43.9183278,-90.2612946
"On Target Firearms, LLC","202 1st Center Ave, Brodhead, WI 53520, United States",42.6279215,-89.3764375
Target Optical,"4301 Lien Rd, Madison, WI 53704, United States",43.11926820000001,-89.30706839999999
Target Optical,"4798 S Moorland Rd, New Berlin, WI 53151, United States",42.958545,-88.10737000000002
Target Optical,"2401 Kossow Rd, Waukesha, WI 53186, United States",43.034241,-88.176863
Target Optical,"2950 S Chase Ave, Milwaukee, WI 53207, United States",42.991605,-87.90748409999999
Target Optical,"1001 Cormier Rd, Green Bay, WI 54304, United States",44.4907618,-88.07151019999999
Target Optical,"6321 McKee Rd, Fitchburg, WI 53719, United States",43.013244,-89.482468
Target Optical,"3649 S Hastings Way, Eau Claire, WI 54701, United States",44.7814596,-91.4336537
Target Optical,"201 Junction Rd, Madison, WI 53717, United States",43.062287,-89.52443099999999
Target Photo Center,"4085 WI-28, Sheboygan Falls, WI 53085, United States",43.716064,-87.7671039
Target Optical,"750 Hilldale Way, Madison, WI 53705, United States",43.0745425,-89.45449769999999
Walmart Supercenter,"130 Commerce St, Wisconsin Dells, WI 53965, United States",43.58487359999999,-89.8121283
CVS Pharmacy,"4301 W Wisconsin Ave, Appleton, WI 54913, United States",44.2691945,-88.4689427
Target,"436 Retail Commons Pkwy, Martinsburg, WV 25403, United States",39.4375,-77.99249999999999
Target,"30 RHL Blvd, South Charleston, WV 25309, United States",38.3385986,-81.7146771
Target,"2070 Thundering Herd Dr, Barboursville, WV 25504, United States",38.42,-82.28472219999999
Target,"5001 University Town Centre Dr, Morgantown, WV 26501, United States",39.6492522,-80.00021269999999
Target,"300 Cabela Dr, Triadelphia, WV 26059, United States",40.0564915,-80.5986381
Target,"2800 Meadowbrook Mall, Bridgeport, WV 26330, United States",39.3112286,-80.27376730000002
Target,"1708 Dell Range Blvd, Cheyenne, WY 82009, United States",41.1620528,-104.8001524
Target,"401 SE Wyoming Blvd, Casper, WY 82609, United States",42.84685899999999,-106.2641983
